{
    "type": "FeatureCollection",
    "features": [
        {
            "type": "Feature",
            "geometry": {
                "type": "Point",
                "coordinates": [
                    61.401967,
                    55.151676
                ]
            },
            "properties": {
                "news_id": "2082610956",
                "title": "Челябинская область в четвертый раз примет детский экологический форум",
                "date": "2026-03-24T12:55:00",
                "text_preview": "Челябинская область в сентябре 2026 года в четвертый раз примет участников всероссийского детского экологического форума из 51 субъекта РФ, за все годы проведения в форуме приняли участие более 12 тыс...",
                "tags": [
                    "Челябинская область",
                    "Магнитогорск",
                    "Челябинская область",
                    "Алексей Текслер",
                    "Татьяна Ковалева"
                ],
                "sentiment": "neutral",
                "confidence": 0.681,
                "place_name": "Челябинск",
                "place_type": "город",
                "region": "Челябинская область",
                "rang": 3,
                "url": "https://ria.ru/20260324/forum-2082610956.html"
            }
        },
        {
            "type": "Feature",
            "geometry": {
                "type": "Point",
                "coordinates": [
                    58.981743,
                    53.414506
                ]
            },
            "properties": {
                "news_id": "2082610956",
                "title": "Челябинская область в четвертый раз примет детский экологический форум",
                "date": "2026-03-24T12:55:00",
                "text_preview": "Челябинская область в сентябре 2026 года в четвертый раз примет участников всероссийского детского экологического форума из 51 субъекта РФ, за все годы проведения в форуме приняли участие более 12 тыс...",
                "tags": [
                    "Челябинская область",
                    "Магнитогорск",
                    "Челябинская область",
                    "Алексей Текслер",
                    "Татьяна Ковалева"
                ],
                "sentiment": "neutral",
                "confidence": 0.681,
                "place_name": "Магнитогорск",
                "place_type": "город",
                "region": "Челябинская область",
                "rang": 3,
                "url": "https://ria.ru/20260324/forum-2082610956.html"
            }
        },
        {
            "type": "Feature",
            "geometry": {
                "type": "Point",
                "coordinates": [
                    60.597652,
                    54.839841
                ]
            },
            "properties": {
                "news_id": "2082820584",
                "title": "Челябинская область продолжит развивать агроэкспорт в 2026 году",
                "date": "2026-03-25T13:52:00",
                "text_preview": "Челябинская область поставляет продукцию агропромышленного комплекса в 35 стран, регион продолжит осваивать новые зарубежные направления и наращивать поставки муки, круп, макарон и мяса в 2026 году, с...",
                "tags": [
                    "Челябинская область",
                    "Челябинская область",
                    "Алексей Текслер"
                ],
                "sentiment": "positive",
                "confidence": 0.669,
                "place_name": "Челябинская область",
                "place_type": "region",
                "region": "Челябинская область",
                "rang": 1,
                "url": "https://ria.ru/20260325/agroeksport-2082820584.html"
            }
        },
        {
            "type": "Feature",
            "geometry": {
                "type": "Point",
                "coordinates": [
                    61.606227,
                    55.861918
                ]
            },
            "properties": {
                "news_id": "2083214095",
                "title": "В Челябинской области открыли современный Дом культуры",
                "date": "2026-03-27T09:53:00",
                "text_preview": "Современный Дом культуры с залами, помещениями для кружков и летней эстрадой открыли в селе Большой Куяш в Челябинской области, сообщил губернатор Алексей Текслер. \"Работал в Кунашакском муниципальном...",
                "tags": [
                    "Челябинская область",
                    "Строительство",
                    "Челябинская область",
                    "Алексей Текслер"
                ],
                "sentiment": "neutral",
                "confidence": 0.711,
                "place_name": "Кунашакский район",
                "place_type": "district",
                "region": "Челябинская область",
                "rang": 2,
                "url": "https://ria.ru/20260327/chelyabinskaya-2083214095.html"
            }
        },
        {
            "type": "Feature",
            "geometry": {
                "type": "Point",
                "coordinates": [
                    66.570678,
                    66.696587
                ]
            },
            "properties": {
                "news_id": "2084220209",
                "title": "В Челябинской области в 2026 году отремонтируют более 700 километров дорог",
                "date": "2026-04-01T11:33:00",
                "text_preview": "Более 700 километров автомобильных дорог в Челябинской области будут приведены в нормативное состояние в 2026 году, в том числе будут построены новые участки, отремонтированы улицы в городах, сообщил ...",
                "tags": [
                    "Челябинская область",
                    "Челябинская область",
                    "Челябинск",
                    "Алексей Текслер",
                    "Андрей Ксензов",
                    "Александр Гусев (губернатор)",
                    "Дороги",
                    "Строительство"
                ],
                "sentiment": "neutral",
                "confidence": 0.635,
                "place_name": "Октябрьский",
                "place_type": "населенный пункт",
                "region": "Ямало-Ненецкий Автономный округ",
                "rang": 3,
                "url": "https://ria.ru/20260401/kilometry-2084220209.html"
            }
        },
        {
            "type": "Feature",
            "geometry": {
                "type": "Point",
                "coordinates": [
                    61.401967,
                    55.151676
                ]
            },
            "properties": {
                "news_id": "2084220209",
                "title": "В Челябинской области в 2026 году отремонтируют более 700 километров дорог",
                "date": "2026-04-01T11:33:00",
                "text_preview": "Более 700 километров автомобильных дорог в Челябинской области будут приведены в нормативное состояние в 2026 году, в том числе будут построены новые участки, отремонтированы улицы в городах, сообщил ...",
                "tags": [
                    "Челябинская область",
                    "Челябинская область",
                    "Челябинск",
                    "Алексей Текслер",
                    "Андрей Ксензов",
                    "Александр Гусев (губернатор)",
                    "Дороги",
                    "Строительство"
                ],
                "sentiment": "neutral",
                "confidence": 0.635,
                "place_name": "Челябинск",
                "place_type": "город",
                "region": "Челябинская область",
                "rang": 3,
                "url": "https://ria.ru/20260401/kilometry-2084220209.html"
            }
        },
        {
            "type": "Feature",
            "geometry": {
                "type": "Point",
                "coordinates": [
                    58.981743,
                    53.414506
                ]
            },
            "properties": {
                "news_id": "2084220209",
                "title": "В Челябинской области в 2026 году отремонтируют более 700 километров дорог",
                "date": "2026-04-01T11:33:00",
                "text_preview": "Более 700 километров автомобильных дорог в Челябинской области будут приведены в нормативное состояние в 2026 году, в том числе будут построены новые участки, отремонтированы улицы в городах, сообщил ...",
                "tags": [
                    "Челябинская область",
                    "Челябинская область",
                    "Челябинск",
                    "Алексей Текслер",
                    "Андрей Ксензов",
                    "Александр Гусев (губернатор)",
                    "Дороги",
                    "Строительство"
                ],
                "sentiment": "neutral",
                "confidence": 0.635,
                "place_name": "Магнитогорск",
                "place_type": "город",
                "region": "Челябинская область",
                "rang": 3,
                "url": "https://ria.ru/20260401/kilometry-2084220209.html"
            }
        },
        {
            "type": "Feature",
            "geometry": {
                "type": "Point",
                "coordinates": [
                    57.689053,
                    54.989874
                ]
            },
            "properties": {
                "news_id": "2084220209",
                "title": "В Челябинской области в 2026 году отремонтируют более 700 километров дорог",
                "date": "2026-04-01T11:33:00",
                "text_preview": "Более 700 километров автомобильных дорог в Челябинской области будут приведены в нормативное состояние в 2026 году, в том числе будут построены новые участки, отремонтированы улицы в городах, сообщил ...",
                "tags": [
                    "Челябинская область",
                    "Челябинская область",
                    "Челябинск",
                    "Алексей Текслер",
                    "Андрей Ксензов",
                    "Александр Гусев (губернатор)",
                    "Дороги",
                    "Строительство"
                ],
                "sentiment": "neutral",
                "confidence": 0.635,
                "place_name": "Сим",
                "place_type": "город",
                "region": "Челябинская область",
                "rang": 3,
                "url": "https://ria.ru/20260401/kilometry-2084220209.html"
            }
        },
        {
            "type": "Feature",
            "geometry": {
                "type": "Point",
                "coordinates": [
                    60.592108,
                    56.839824
                ]
            },
            "properties": {
                "news_id": "2084220209",
                "title": "В Челябинской области в 2026 году отремонтируют более 700 километров дорог",
                "date": "2026-04-01T11:33:00",
                "text_preview": "Более 700 километров автомобильных дорог в Челябинской области будут приведены в нормативное состояние в 2026 году, в том числе будут построены новые участки, отремонтированы улицы в городах, сообщил ...",
                "tags": [
                    "Челябинская область",
                    "Челябинская область",
                    "Челябинск",
                    "Алексей Текслер",
                    "Андрей Ксензов",
                    "Александр Гусев (губернатор)",
                    "Дороги",
                    "Строительство"
                ],
                "sentiment": "neutral",
                "confidence": 0.635,
                "place_name": "Екатеринбург",
                "place_type": "город",
                "region": "Свердловская область",
                "rang": 3,
                "url": "https://ria.ru/20260401/kilometry-2084220209.html"
            }
        },
        {
            "type": "Feature",
            "geometry": {
                "type": "Point",
                "coordinates": [
                    63.636089,
                    56.0877
                ]
            },
            "properties": {
                "news_id": "2084220209",
                "title": "В Челябинской области в 2026 году отремонтируют более 700 километров дорог",
                "date": "2026-04-01T11:33:00",
                "text_preview": "Более 700 километров автомобильных дорог в Челябинской области будут приведены в нормативное состояние в 2026 году, в том числе будут построены новые участки, отремонтированы улицы в городах, сообщил ...",
                "tags": [
                    "Челябинская область",
                    "Челябинская область",
                    "Челябинск",
                    "Алексей Текслер",
                    "Андрей Ксензов",
                    "Александр Гусев (губернатор)",
                    "Дороги",
                    "Строительство"
                ],
                "sentiment": "neutral",
                "confidence": 0.635,
                "place_name": "Шадринск",
                "place_type": "город",
                "region": "Курганская область",
                "rang": 3,
                "url": "https://ria.ru/20260401/kilometry-2084220209.html"
            }
        },
        {
            "type": "Feature",
            "geometry": {
                "type": "Point",
                "coordinates": [
                    65.344316,
                    55.441606
                ]
            },
            "properties": {
                "news_id": "2084220209",
                "title": "В Челябинской области в 2026 году отремонтируют более 700 километров дорог",
                "date": "2026-04-01T11:33:00",
                "text_preview": "Более 700 километров автомобильных дорог в Челябинской области будут приведены в нормативное состояние в 2026 году, в том числе будут построены новые участки, отремонтированы улицы в городах, сообщил ...",
                "tags": [
                    "Челябинская область",
                    "Челябинская область",
                    "Челябинск",
                    "Алексей Текслер",
                    "Андрей Ксензов",
                    "Александр Гусев (губернатор)",
                    "Дороги",
                    "Строительство"
                ],
                "sentiment": "neutral",
                "confidence": 0.635,
                "place_name": "Курган",
                "place_type": "город",
                "region": "Курганская область",
                "rang": 3,
                "url": "https://ria.ru/20260401/kilometry-2084220209.html"
            }
        },
        {
            "type": "Feature",
            "geometry": {
                "type": "Point",
                "coordinates": [
                    61.401967,
                    55.151676
                ]
            },
            "properties": {
                "news_id": "2084774539",
                "title": "Трехсекционные трамваи впервые вышли на улицы Челябинска",
                "date": "2026-04-01T14:15:00",
                "text_preview": "Трехсекционные трамваи, которые могут передвигаться и под землей, впервые 2 апреля 2026 года выехали на улицы Челябинска, это важный этап реализации проекта метротрама, где они будут использоваться, с...",
                "tags": [
                    "Челябинская область",
                    "Челябинск",
                    "Челябинская область",
                    "Алексей Текслер",
                    "Александр Егоров",
                    "Роман Новиков",
                    "Общественный транспорт"
                ],
                "sentiment": "positive",
                "confidence": 0.738,
                "place_name": "Челябинск",
                "place_type": "город",
                "region": "Челябинская область",
                "rang": 3,
                "url": "https://ria.ru/20260402/tramvai-2084774539.html"
            }
        },
        {
            "type": "Feature",
            "geometry": {
                "type": "Point",
                "coordinates": [
                    59.9462,
                    53.6834
                ]
            },
            "properties": {
                "news_id": "2084774539",
                "title": "Трехсекционные трамваи впервые вышли на улицы Челябинска",
                "date": "2026-04-01T14:15:00",
                "text_preview": "Трехсекционные трамваи, которые могут передвигаться и под землей, впервые 2 апреля 2026 года выехали на улицы Челябинска, это важный этап реализации проекта метротрама, где они будут использоваться, с...",
                "tags": [
                    "Челябинская область",
                    "Челябинск",
                    "Челябинская область",
                    "Алексей Текслер",
                    "Александр Егоров",
                    "Роман Новиков",
                    "Общественный транспорт"
                ],
                "sentiment": "positive",
                "confidence": 0.738,
                "place_name": "Калининский",
                "place_type": "поселок",
                "region": "Челябинская область",
                "rang": 3,
                "url": "https://ria.ru/20260402/tramvai-2084774539.html"
            }
        },
        {
            "type": "Feature",
            "geometry": {
                "type": "Point",
                "coordinates": [
                    59.39333,
                    55.18167
                ]
            },
            "properties": {
                "news_id": "2084774539",
                "title": "Трехсекционные трамваи впервые вышли на улицы Челябинска",
                "date": "2026-04-01T14:15:00",
                "text_preview": "Трехсекционные трамваи, которые могут передвигаться и под землей, впервые 2 апреля 2026 года выехали на улицы Челябинска, это важный этап реализации проекта метротрама, где они будут использоваться, с...",
                "tags": [
                    "Челябинская область",
                    "Челябинск",
                    "Челябинская область",
                    "Алексей Текслер",
                    "Александр Егоров",
                    "Роман Новиков",
                    "Общественный транспорт"
                ],
                "sentiment": "positive",
                "confidence": 0.738,
                "place_name": "Центральный",
                "place_type": "поселок",
                "region": "Челябинская область",
                "rang": 3,
                "url": "https://ria.ru/20260402/tramvai-2084774539.html"
            }
        },
        {
            "type": "Feature",
            "geometry": {
                "type": "Point",
                "coordinates": [
                    63.565411,
                    61.371532
                ]
            },
            "properties": {
                "news_id": "2084774539",
                "title": "Трехсекционные трамваи впервые вышли на улицы Челябинска",
                "date": "2026-04-01T14:15:00",
                "text_preview": "Трехсекционные трамваи, которые могут передвигаться и под землей, впервые 2 апреля 2026 года выехали на улицы Челябинска, это важный этап реализации проекта метротрама, где они будут использоваться, с...",
                "tags": [
                    "Челябинская область",
                    "Челябинск",
                    "Челябинская область",
                    "Алексей Текслер",
                    "Александр Егоров",
                    "Роман Новиков",
                    "Общественный транспорт"
                ],
                "sentiment": "positive",
                "confidence": 0.738,
                "place_name": "Советский",
                "place_type": "город",
                "region": "Ханты-Мансийский Автономный округ",
                "rang": 3,
                "url": "https://ria.ru/20260402/tramvai-2084774539.html"
            }
        },
        {
            "type": "Feature",
            "geometry": {
                "type": "Point",
                "coordinates": [
                    61.401967,
                    55.151676
                ]
            },
            "properties": {
                "news_id": "2086121036",
                "title": "Новый этап строительства метротрама стартовал в Челябинске",
                "date": "2026-04-09T14:27:00",
                "text_preview": "Новый этап строительства линии метротрамвая \"Север-Юг\", где будет использован тоннелепроходческий механизированный комплекс \"Мария\", стартовал в Челябинске 9 апреля, сообщил губернатор региона Алексей...",
                "tags": [
                    "Челябинская область",
                    "Строительство",
                    "Челябинск",
                    "Россия",
                    "Челябинская область",
                    "Алексей Текслер",
                    "Моспроект-3"
                ],
                "sentiment": "neutral",
                "confidence": 0.658,
                "place_name": "Челябинск",
                "place_type": "город",
                "region": "Челябинская область",
                "rang": 3,
                "url": "https://ria.ru/20260409/cheljabinsk-2086121036.html"
            }
        },
        {
            "type": "Feature",
            "geometry": {
                "type": "Point",
                "coordinates": [
                    70.2927,
                    55.6877
                ]
            },
            "properties": {
                "news_id": "2086121036",
                "title": "Новый этап строительства метротрама стартовал в Челябинске",
                "date": "2026-04-09T14:27:00",
                "text_preview": "Новый этап строительства линии метротрамвая \"Север-Юг\", где будет использован тоннелепроходческий механизированный комплекс \"Мария\", стартовал в Челябинске 9 апреля, сообщил губернатор региона Алексей...",
                "tags": [
                    "Челябинская область",
                    "Строительство",
                    "Челябинск",
                    "Россия",
                    "Челябинская область",
                    "Алексей Текслер",
                    "Моспроект-3"
                ],
                "sentiment": "neutral",
                "confidence": 0.658,
                "place_name": "Победа",
                "place_type": "поселок",
                "region": "Тюменская область",
                "rang": 3,
                "url": "https://ria.ru/20260409/cheljabinsk-2086121036.html"
            }
        },
        {
            "type": "Feature",
            "geometry": {
                "type": "Point",
                "coordinates": [
                    61.401967,
                    55.151676
                ]
            },
            "properties": {
                "news_id": "2090453983",
                "title": "Жители Челябинской области выберут объекты благоустройства на 2027 год",
                "date": "2026-05-04T16:24:00",
                "text_preview": "Жители Челябинской области до 12 июня смогут выбрать объекты благоустройства в регионе, которые обновят в 2027 году, сообщил губернатор региона Алексей Текслер. \"В этом году в Челябинской области запл...",
                "tags": [
                    "Алексей Текслер",
                    "Благоустройство"
                ],
                "sentiment": "neutral",
                "confidence": 0.768,
                "place_name": "Челябинск",
                "place_type": "город",
                "region": "Челябинская область",
                "rang": 3,
                "url": "https://ria.ru/20260504/chelyabinsk-2090453983.html"
            }
        }
    ]
}