{
    "type": "FeatureCollection",
    "features": [
        {
            "type": "Feature",
            "geometry": {
                "type": "Point",
                "coordinates": [
                    73.218102,
                    61.057302
                ]
            },
            "properties": {
                "news_id": "2062458175",
                "title": "Бюджет Сургутского района Югры сохранит социальную направленность",
                "date": "2025-12-16T00:00:00",
                "text_preview": "Проект бюджета Сургутского района сформирован на 2026 год и плановый период 2027-2028 годов, он предусматривает значительное финансирование социальной сферы, жилищных программ и модернизации инфрастру...",
                "tags": [
                    "Ханты-Мансийский Автономный Округ",
                    "Сургутский район"
                ],
                "sentiment": "neutral",
                "confidence": 0.793,
                "place_name": "Сургутский район",
                "place_type": "district",
                "region": "Ханты-Мансийский Автономный округ",
                "rang": 2,
                "url": "https://ria.ru/20251216/proekt-2062458175.html"
            }
        },
        {
            "type": "Feature",
            "geometry": {
                "type": "Point",
                "coordinates": [
                    65.26165,
                    58.09822
                ]
            },
            "properties": {
                "news_id": "2062842195",
                "title": "Сургутский район признан лидером предпринимательства в Югре",
                "date": "2025-12-18T00:00:00",
                "text_preview": "Сургутский район в пятый раз подряд стал \"Лучшим муниципальным образованием с наиболее благоприятными условиями для развития предпринимательства\" в Югре, показав значительный рост числа предпринимател...",
                "tags": [
                    "Ханты-Мансийский Автономный Округ",
                    "Сургутский район"
                ],
                "sentiment": "neutral",
                "confidence": 0.675,
                "place_name": "Белый Яр",
                "place_type": "поселок",
                "region": "Свердловская область",
                "rang": 3,
                "url": "https://ria.ru/20251218/yugra-2062842195.html"
            }
        },
        {
            "type": "Feature",
            "geometry": {
                "type": "Point",
                "coordinates": [
                    72.179426,
                    61.63919
                ]
            },
            "properties": {
                "news_id": "2063428818",
                "title": "Свыше 50 тыс кв м жилья планируют построить в Лянторе по программе КРТ",
                "date": "2025-12-19T00:00:00",
                "text_preview": "Свыше 50 тысяч квадратных метров жилья планируется построить в Лянторе в Сургутском районе Югры, реализация проекта будет осуществляться с помощью механизма комплексного развития территории (КРТ), соо...",
                "tags": [
                    "Ханты-Мансийский Автономный Округ",
                    "Жилье",
                    "Лянтор",
                    "Сургутский район",
                    "Солнечный",
                    "Руслан Кухарук"
                ],
                "sentiment": "neutral",
                "confidence": 0.655,
                "place_name": "Лянтор",
                "place_type": "город",
                "region": "Ханты-Мансийский Автономный округ",
                "rang": 3,
                "url": "https://ria.ru/20251219/zhile-2063428818.html"
            }
        },
        {
            "type": "Feature",
            "geometry": {
                "type": "Point",
                "coordinates": [
                    61.20213,
                    57.12768
                ]
            },
            "properties": {
                "news_id": "2063428818",
                "title": "Свыше 50 тыс кв м жилья планируют построить в Лянторе по программе КРТ",
                "date": "2025-12-19T00:00:00",
                "text_preview": "Свыше 50 тысяч квадратных метров жилья планируется построить в Лянторе в Сургутском районе Югры, реализация проекта будет осуществляться с помощью механизма комплексного развития территории (КРТ), соо...",
                "tags": [
                    "Ханты-Мансийский Автономный Округ",
                    "Жилье",
                    "Лянтор",
                    "Сургутский район",
                    "Солнечный",
                    "Руслан Кухарук"
                ],
                "sentiment": "neutral",
                "confidence": 0.655,
                "place_name": "Солнечный",
                "place_type": "поселок",
                "region": "Свердловская область",
                "rang": 3,
                "url": "https://ria.ru/20251219/zhile-2063428818.html"
            }
        },
        {
            "type": "Feature",
            "geometry": {
                "type": "Point",
                "coordinates": [
                    60.592108,
                    56.839824
                ]
            },
            "properties": {
                "news_id": "2067778962",
                "title": "Свыше 17 тысяч туристов посетили Сургутский район за новогодние праздники",
                "date": "2026-01-14T12:17:00",
                "text_preview": "Свыше 17 тысяч туристов из разных городов России посетили Сургутский район Югры за новогодние праздники, самыми популярными объектами стали музей \"Барсова гора\", обновленный Русскинской музей природы ...",
                "tags": [
                    "Ханты-Мансийский Автономный Округ",
                    "Россия",
                    "Сургутский район",
                    "Москва",
                    "Новый год",
                    "Ханты-Мансийский автономный округ"
                ],
                "sentiment": "neutral",
                "confidence": 0.725,
                "place_name": "Екатеринбург",
                "place_type": "город",
                "region": "Свердловская область",
                "rang": 3,
                "url": "https://ria.ru/20260114/jugra-2067778962.html"
            }
        },
        {
            "type": "Feature",
            "geometry": {
                "type": "Point",
                "coordinates": [
                    73.400993,
                    61.25716
                ]
            },
            "properties": {
                "news_id": "2069430400",
                "title": "Две НКО Сургутского района Югры получили гранты на реализацию проектов",
                "date": "2026-01-21T21:55:00",
                "text_preview": "Две некоммерческие организации из Сургутского района Югры стали победителями президентских грантов, получив финансирование на проекты по переработке стеклянных отходов и коррекционной помощи детям, со...",
                "tags": [
                    "Ханты-Мансийский Автономный Округ",
                    "Сургутский район",
                    "Сургут",
                    "Фонд президентских грантов"
                ],
                "sentiment": "neutral",
                "confidence": 0.648,
                "place_name": "Сургут",
                "place_type": "город",
                "region": "Ханты-Мансийский Автономный округ",
                "rang": 3,
                "url": "https://ria.ru/20260121/yugra-2069430400.html"
            }
        },
        {
            "type": "Feature",
            "geometry": {
                "type": "Point",
                "coordinates": [
                    61.20213,
                    57.12768
                ]
            },
            "properties": {
                "news_id": "2070140968",
                "title": "В Сургутском районе Югры открыли новую лыжную базу",
                "date": "2026-01-25T08:12:00",
                "text_preview": "Новая лыжная база стоимостью 9,1 миллиона рублей открылась в Сургутском районе Югры, она оснащена всем необходимым для тренировок, сообщил глава муниципалитета Андрей Трубецкой. По словам главы муници...",
                "tags": [
                    "Ханты-Мансийский Автономный Округ",
                    "Сургутский район"
                ],
                "sentiment": "neutral",
                "confidence": 0.761,
                "place_name": "Солнечный",
                "place_type": "поселок",
                "region": "Свердловская область",
                "rang": 3,
                "url": "https://ria.ru/20260125/jugra-2070140968.html"
            }
        },
        {
            "type": "Feature",
            "geometry": {
                "type": "Point",
                "coordinates": [
                    65.26165,
                    58.09822
                ]
            },
            "properties": {
                "news_id": "2072006794",
                "title": "Сургутский район представил шесть проектов на конкурс бюджетирования Югры",
                "date": "2026-02-03T17:46:00",
                "text_preview": "Жители Сургутского района Югры представили шесть проектов в сфере образования, культуры и спорта с общим бюджетом почти 61 миллион рублей на конкурс инициативного бюджетирования региона, сообщил глава...",
                "tags": [
                    "Ханты-Мансийский Автономный Округ",
                    "Сургутский район",
                    "Белый Яр"
                ],
                "sentiment": "neutral",
                "confidence": 0.617,
                "place_name": "Белый Яр",
                "place_type": "поселок",
                "region": "Свердловская область",
                "rang": 3,
                "url": "https://ria.ru/20260203/yugra-2072006794.html"
            }
        },
        {
            "type": "Feature",
            "geometry": {
                "type": "Point",
                "coordinates": [
                    71.765204,
                    62.442807
                ]
            },
            "properties": {
                "news_id": "2072006794",
                "title": "Сургутский район представил шесть проектов на конкурс бюджетирования Югры",
                "date": "2026-02-03T17:46:00",
                "text_preview": "Жители Сургутского района Югры представили шесть проектов в сфере образования, культуры и спорта с общим бюджетом почти 61 миллион рублей на конкурс инициативного бюджетирования региона, сообщил глава...",
                "tags": [
                    "Ханты-Мансийский Автономный Округ",
                    "Сургутский район",
                    "Белый Яр"
                ],
                "sentiment": "neutral",
                "confidence": 0.617,
                "place_name": "Нижнесортымский",
                "place_type": "поселок",
                "region": "Ханты-Мансийский Автономный округ",
                "rang": 3,
                "url": "https://ria.ru/20260203/yugra-2072006794.html"
            }
        },
        {
            "type": "Feature",
            "geometry": {
                "type": "Point",
                "coordinates": [
                    72.179426,
                    61.63919
                ]
            },
            "properties": {
                "news_id": "2073835917",
                "title": "Объем средств жилищным программам в Сургутском районе составил 6,9 млрд руб",
                "date": "2026-02-12T10:24:00",
                "text_preview": "Объем финансирования жилищных программ в Сургутском районе Ханты-Мансийского автономного округа - Югры в 2026 году достиг 6,9 миллиарда рублей, это позволит улучшить условия проживания порядка 1,5 тыс...",
                "tags": [
                    "Ханты-Мансийский Автономный Округ",
                    "Сургутский район"
                ],
                "sentiment": "positive",
                "confidence": 0.59,
                "place_name": "Лянтор",
                "place_type": "город",
                "region": "Ханты-Мансийский Автономный округ",
                "rang": 3,
                "url": "https://ria.ru/20260212/yugra-2073835917.html"
            }
        },
        {
            "type": "Feature",
            "geometry": {
                "type": "Point",
                "coordinates": [
                    65.26165,
                    58.09822
                ]
            },
            "properties": {
                "news_id": "2075956076",
                "title": "Сургутский район укрепил лидерство в экономике и соцсфере Югры в 2025 г",
                "date": "2026-02-21T12:52:00",
                "text_preview": "Сургутский район Югры по итогам 2025 года продемонстрировал высокие экономические показатели, улучшение социальной инфраструктуры и сохранение лидерства в регионе по качеству управления бюджетом и инв...",
                "tags": [
                    "Ханты-Мансийский Автономный Округ",
                    "Сургутский район",
                    "Белый Яр",
                    "Солнечный",
                    "Югра",
                    "Ханты-Мансийский автономный округ"
                ],
                "sentiment": "positive",
                "confidence": 0.617,
                "place_name": "Белый Яр",
                "place_type": "поселок",
                "region": "Свердловская область",
                "rang": 3,
                "url": "https://ria.ru/20260221/yugra-2075956076.html"
            }
        },
        {
            "type": "Feature",
            "geometry": {
                "type": "Point",
                "coordinates": [
                    61.20213,
                    57.12768
                ]
            },
            "properties": {
                "news_id": "2075956076",
                "title": "Сургутский район укрепил лидерство в экономике и соцсфере Югры в 2025 г",
                "date": "2026-02-21T12:52:00",
                "text_preview": "Сургутский район Югры по итогам 2025 года продемонстрировал высокие экономические показатели, улучшение социальной инфраструктуры и сохранение лидерства в регионе по качеству управления бюджетом и инв...",
                "tags": [
                    "Ханты-Мансийский Автономный Округ",
                    "Сургутский район",
                    "Белый Яр",
                    "Солнечный",
                    "Югра",
                    "Ханты-Мансийский автономный округ"
                ],
                "sentiment": "positive",
                "confidence": 0.617,
                "place_name": "Солнечный",
                "place_type": "поселок",
                "region": "Свердловская область",
                "rang": 3,
                "url": "https://ria.ru/20260221/yugra-2075956076.html"
            }
        },
        {
            "type": "Feature",
            "geometry": {
                "type": "Point",
                "coordinates": [
                    73.218102,
                    61.057302
                ]
            },
            "properties": {
                "news_id": "2078671919",
                "title": "Сургутский район и Эрмитаж планируют тесное сотрудничество в музейном деле",
                "date": "2026-03-05T10:36:00",
                "text_preview": "Делегация Сургутского района договорилась о сотрудничестве с Государственным Эрмитажем, планируется проведение научных форумов, открытие выставочных площадок и проведение цифровых выставок на базе буд...",
                "tags": [
                    "Ханты-Мансийский Автономный Округ",
                    "Михаил Пиотровский",
                    "Сургутский район",
                    "Санкт-Петербург",
                    "Государственный Эрмитаж",
                    "Ханты-Мансийский автономный округ"
                ],
                "sentiment": "neutral",
                "confidence": 0.665,
                "place_name": "Сургутский район",
                "place_type": "district",
                "region": "Ханты-Мансийский Автономный округ",
                "rang": 2,
                "url": "https://ria.ru/20260305/khmao-2078671919.html"
            }
        },
        {
            "type": "Feature",
            "geometry": {
                "type": "Point",
                "coordinates": [
                    61.20213,
                    57.12768
                ]
            },
            "properties": {
                "news_id": "2081066184",
                "title": "Сургутский район Югры получил свыше 118 млн руб от недропользователей",
                "date": "2026-03-16T18:17:00",
                "text_preview": "Недропользователи Сургутского района Югры вложили более 118 миллионов рублей в развитие социальной сферы, культуры и инфраструктуры муниципалитета в 2025 году, значительная часть средств была направле...",
                "tags": [
                    "Ханты-Мансийский Автономный Округ",
                    "Сургутский район",
                    "Развитие"
                ],
                "sentiment": "neutral",
                "confidence": 0.707,
                "place_name": "Солнечный",
                "place_type": "поселок",
                "region": "Свердловская область",
                "rang": 3,
                "url": "https://ria.ru/20260316/yugra-2081066184.html"
            }
        },
        {
            "type": "Feature",
            "geometry": {
                "type": "Point",
                "coordinates": [
                    72.179426,
                    61.63919
                ]
            },
            "properties": {
                "news_id": "2081066184",
                "title": "Сургутский район Югры получил свыше 118 млн руб от недропользователей",
                "date": "2026-03-16T18:17:00",
                "text_preview": "Недропользователи Сургутского района Югры вложили более 118 миллионов рублей в развитие социальной сферы, культуры и инфраструктуры муниципалитета в 2025 году, значительная часть средств была направле...",
                "tags": [
                    "Ханты-Мансийский Автономный Округ",
                    "Сургутский район",
                    "Развитие"
                ],
                "sentiment": "neutral",
                "confidence": 0.707,
                "place_name": "Лянтор",
                "place_type": "город",
                "region": "Ханты-Мансийский Автономный округ",
                "rang": 3,
                "url": "https://ria.ru/20260316/yugra-2081066184.html"
            }
        },
        {
            "type": "Feature",
            "geometry": {
                "type": "Point",
                "coordinates": [
                    65.51564,
                    57.154949
                ]
            },
            "properties": {
                "news_id": "2081066184",
                "title": "Сургутский район Югры получил свыше 118 млн руб от недропользователей",
                "date": "2026-03-16T18:17:00",
                "text_preview": "Недропользователи Сургутского района Югры вложили более 118 миллионов рублей в развитие социальной сферы, культуры и инфраструктуры муниципалитета в 2025 году, значительная часть средств была направле...",
                "tags": [
                    "Ханты-Мансийский Автономный Округ",
                    "Сургутский район",
                    "Развитие"
                ],
                "sentiment": "neutral",
                "confidence": 0.707,
                "place_name": "Тюмень",
                "place_type": "город",
                "region": "Тюменская область",
                "rang": 3,
                "url": "https://ria.ru/20260316/yugra-2081066184.html"
            }
        },
        {
            "type": "Feature",
            "geometry": {
                "type": "Point",
                "coordinates": [
                    69.006241,
                    61.00079
                ]
            },
            "properties": {
                "news_id": "2081066184",
                "title": "Сургутский район Югры получил свыше 118 млн руб от недропользователей",
                "date": "2026-03-16T18:17:00",
                "text_preview": "Недропользователи Сургутского района Югры вложили более 118 миллионов рублей в развитие социальной сферы, культуры и инфраструктуры муниципалитета в 2025 году, значительная часть средств была направле...",
                "tags": [
                    "Ханты-Мансийский Автономный Округ",
                    "Сургутский район",
                    "Развитие"
                ],
                "sentiment": "neutral",
                "confidence": 0.707,
                "place_name": "Ханты-Мансийск",
                "place_type": "город",
                "region": "Ханты-Мансийский Автономный округ",
                "rang": 3,
                "url": "https://ria.ru/20260316/yugra-2081066184.html"
            }
        },
        {
            "type": "Feature",
            "geometry": {
                "type": "Point",
                "coordinates": [
                    68.253762,
                    58.201698
                ]
            },
            "properties": {
                "news_id": "2081066184",
                "title": "Сургутский район Югры получил свыше 118 млн руб от недропользователей",
                "date": "2026-03-16T18:17:00",
                "text_preview": "Недропользователи Сургутского района Югры вложили более 118 миллионов рублей в развитие социальной сферы, культуры и инфраструктуры муниципалитета в 2025 году, значительная часть средств была направле...",
                "tags": [
                    "Ханты-Мансийский Автономный Округ",
                    "Сургутский район",
                    "Развитие"
                ],
                "sentiment": "neutral",
                "confidence": 0.707,
                "place_name": "Тобольск",
                "place_type": "город",
                "region": "Тюменская область",
                "rang": 3,
                "url": "https://ria.ru/20260316/yugra-2081066184.html"
            }
        },
        {
            "type": "Feature",
            "geometry": {
                "type": "Point",
                "coordinates": [
                    72.616331,
                    61.088212
                ]
            },
            "properties": {
                "news_id": "2081066184",
                "title": "Сургутский район Югры получил свыше 118 млн руб от недропользователей",
                "date": "2026-03-16T18:17:00",
                "text_preview": "Недропользователи Сургутского района Югры вложили более 118 миллионов рублей в развитие социальной сферы, культуры и инфраструктуры муниципалитета в 2025 году, значительная часть средств была направле...",
                "tags": [
                    "Ханты-Мансийский Автономный Округ",
                    "Сургутский район",
                    "Развитие"
                ],
                "sentiment": "neutral",
                "confidence": 0.707,
                "place_name": "Нефтеюганск",
                "place_type": "город",
                "region": "Ханты-Мансийский Автономный округ",
                "rang": 3,
                "url": "https://ria.ru/20260316/yugra-2081066184.html"
            }
        },
        {
            "type": "Feature",
            "geometry": {
                "type": "Point",
                "coordinates": [
                    73.400993,
                    61.25716
                ]
            },
            "properties": {
                "news_id": "2081066184",
                "title": "Сургутский район Югры получил свыше 118 млн руб от недропользователей",
                "date": "2026-03-16T18:17:00",
                "text_preview": "Недропользователи Сургутского района Югры вложили более 118 миллионов рублей в развитие социальной сферы, культуры и инфраструктуры муниципалитета в 2025 году, значительная часть средств была направле...",
                "tags": [
                    "Ханты-Мансийский Автономный Округ",
                    "Сургутский район",
                    "Развитие"
                ],
                "sentiment": "neutral",
                "confidence": 0.707,
                "place_name": "Сургут",
                "place_type": "город",
                "region": "Ханты-Мансийский Автономный округ",
                "rang": 3,
                "url": "https://ria.ru/20260316/yugra-2081066184.html"
            }
        },
        {
            "type": "Feature",
            "geometry": {
                "type": "Point",
                "coordinates": [
                    61.840407,
                    58.920063
                ]
            },
            "properties": {
                "news_id": "2082171995",
                "title": "День оленеводов, рыбаков и охотников отметили в Сургутском районе",
                "date": "2026-03-21T18:25:00",
                "text_preview": "День оленеводов, рыбаков и охотников прошел в Сургутском районе Югры, в этом году традиционный праздник отметили в 56-й раз, сообщил глава муниципалитета Андрей Трубецкой. \"В Русскинской прошел районн...",
                "tags": [
                    "Ханты-Мансийский Автономный Округ",
                    "Сургутский район",
                    "Сургут"
                ],
                "sentiment": "neutral",
                "confidence": 0.588,
                "place_name": "Тюменская",
                "place_type": "деревня",
                "region": "Свердловская область",
                "rang": 3,
                "url": "https://ria.ru/20260321/den-2082171995.html"
            }
        },
        {
            "type": "Feature",
            "geometry": {
                "type": "Point",
                "coordinates": [
                    73.400993,
                    61.25716
                ]
            },
            "properties": {
                "news_id": "2082171995",
                "title": "День оленеводов, рыбаков и охотников отметили в Сургутском районе",
                "date": "2026-03-21T18:25:00",
                "text_preview": "День оленеводов, рыбаков и охотников прошел в Сургутском районе Югры, в этом году традиционный праздник отметили в 56-й раз, сообщил глава муниципалитета Андрей Трубецкой. \"В Русскинской прошел районн...",
                "tags": [
                    "Ханты-Мансийский Автономный Округ",
                    "Сургутский район",
                    "Сургут"
                ],
                "sentiment": "neutral",
                "confidence": 0.588,
                "place_name": "Сургут",
                "place_type": "город",
                "region": "Ханты-Мансийский Автономный округ",
                "rang": 3,
                "url": "https://ria.ru/20260321/den-2082171995.html"
            }
        },
        {
            "type": "Feature",
            "geometry": {
                "type": "Point",
                "coordinates": [
                    72.616331,
                    61.088212
                ]
            },
            "properties": {
                "news_id": "2082171995",
                "title": "День оленеводов, рыбаков и охотников отметили в Сургутском районе",
                "date": "2026-03-21T18:25:00",
                "text_preview": "День оленеводов, рыбаков и охотников прошел в Сургутском районе Югры, в этом году традиционный праздник отметили в 56-й раз, сообщил глава муниципалитета Андрей Трубецкой. \"В Русскинской прошел районн...",
                "tags": [
                    "Ханты-Мансийский Автономный Округ",
                    "Сургутский район",
                    "Сургут"
                ],
                "sentiment": "neutral",
                "confidence": 0.588,
                "place_name": "Нефтеюганск",
                "place_type": "город",
                "region": "Ханты-Мансийский Автономный округ",
                "rang": 3,
                "url": "https://ria.ru/20260321/den-2082171995.html"
            }
        },
        {
            "type": "Feature",
            "geometry": {
                "type": "Point",
                "coordinates": [
                    74.482904,
                    62.263893
                ]
            },
            "properties": {
                "news_id": "2082171995",
                "title": "День оленеводов, рыбаков и охотников отметили в Сургутском районе",
                "date": "2026-03-21T18:25:00",
                "text_preview": "День оленеводов, рыбаков и охотников прошел в Сургутском районе Югры, в этом году традиционный праздник отметили в 56-й раз, сообщил глава муниципалитета Андрей Трубецкой. \"В Русскинской прошел районн...",
                "tags": [
                    "Ханты-Мансийский Автономный Округ",
                    "Сургутский район",
                    "Сургут"
                ],
                "sentiment": "neutral",
                "confidence": 0.588,
                "place_name": "Когалым",
                "place_type": "город",
                "region": "Ханты-Мансийский Автономный округ",
                "rang": 3,
                "url": "https://ria.ru/20260321/den-2082171995.html"
            }
        },
        {
            "type": "Feature",
            "geometry": {
                "type": "Point",
                "coordinates": [
                    60.592108,
                    56.839824
                ]
            },
            "properties": {
                "news_id": "2082171995",
                "title": "День оленеводов, рыбаков и охотников отметили в Сургутском районе",
                "date": "2026-03-21T18:25:00",
                "text_preview": "День оленеводов, рыбаков и охотников прошел в Сургутском районе Югры, в этом году традиционный праздник отметили в 56-й раз, сообщил глава муниципалитета Андрей Трубецкой. \"В Русскинской прошел районн...",
                "tags": [
                    "Ханты-Мансийский Автономный Округ",
                    "Сургутский район",
                    "Сургут"
                ],
                "sentiment": "neutral",
                "confidence": 0.588,
                "place_name": "Екатеринбург",
                "place_type": "город",
                "region": "Свердловская область",
                "rang": 3,
                "url": "https://ria.ru/20260321/den-2082171995.html"
            }
        },
        {
            "type": "Feature",
            "geometry": {
                "type": "Point",
                "coordinates": [
                    69.924763,
                    60.060186
                ]
            },
            "properties": {
                "news_id": "2084926106",
                "title": "Югорчане обсудили с депутатом Госдумы Завальным развитие округа",
                "date": "2026-04-03T10:14:00",
                "text_preview": "Вопросы развития территорий, реализация и дополнение положений Народной программы партии \"Единая Россия\" с учётом запросов югорчан стали ключевыми темами рабочих встреч с жителями городов и поселений ...",
                "tags": [
                    "Ханты-Мансийский Автономный Округ",
                    "Ханты-Мансийск",
                    "Урай",
                    "Павел Завальный",
                    "Единая Россия"
                ],
                "sentiment": "neutral",
                "confidence": 0.773,
                "place_name": "Горноправдинск",
                "place_type": "поселок",
                "region": "Ханты-Мансийский Автономный округ",
                "rang": 3,
                "url": "https://ria.ru/20260403/khmao-2084926106.html"
            }
        },
        {
            "type": "Feature",
            "geometry": {
                "type": "Point",
                "coordinates": [
                    69.006241,
                    61.00079
                ]
            },
            "properties": {
                "news_id": "2084926106",
                "title": "Югорчане обсудили с депутатом Госдумы Завальным развитие округа",
                "date": "2026-04-03T10:14:00",
                "text_preview": "Вопросы развития территорий, реализация и дополнение положений Народной программы партии \"Единая Россия\" с учётом запросов югорчан стали ключевыми темами рабочих встреч с жителями городов и поселений ...",
                "tags": [
                    "Ханты-Мансийский Автономный Округ",
                    "Ханты-Мансийск",
                    "Урай",
                    "Павел Завальный",
                    "Единая Россия"
                ],
                "sentiment": "neutral",
                "confidence": 0.773,
                "place_name": "Ханты-Мансийск",
                "place_type": "город",
                "region": "Ханты-Мансийский Автономный округ",
                "rang": 3,
                "url": "https://ria.ru/20260403/khmao-2084926106.html"
            }
        },
        {
            "type": "Feature",
            "geometry": {
                "type": "Point",
                "coordinates": [
                    60.791699,
                    59.572065
                ]
            },
            "properties": {
                "news_id": "2084926106",
                "title": "Югорчане обсудили с депутатом Госдумы Завальным развитие округа",
                "date": "2026-04-03T10:14:00",
                "text_preview": "Вопросы развития территорий, реализация и дополнение положений Народной программы партии \"Единая Россия\" с учётом запросов югорчан стали ключевыми темами рабочих встреч с жителями городов и поселений ...",
                "tags": [
                    "Ханты-Мансийский Автономный Округ",
                    "Ханты-Мансийск",
                    "Урай",
                    "Павел Завальный",
                    "Единая Россия"
                ],
                "sentiment": "neutral",
                "confidence": 0.773,
                "place_name": "Урай",
                "place_type": "поселок",
                "region": "Свердловская область",
                "rang": 3,
                "url": "https://ria.ru/20260403/khmao-2084926106.html"
            }
        },
        {
            "type": "Feature",
            "geometry": {
                "type": "Point",
                "coordinates": [
                    65.971843,
                    58.807322
                ]
            },
            "properties": {
                "news_id": "2084926106",
                "title": "Югорчане обсудили с депутатом Госдумы Завальным развитие округа",
                "date": "2026-04-03T10:14:00",
                "text_preview": "Вопросы развития территорий, реализация и дополнение положений Народной программы партии \"Единая Россия\" с учётом запросов югорчан стали ключевыми темами рабочих встреч с жителями городов и поселений ...",
                "tags": [
                    "Ханты-Мансийский Автономный Округ",
                    "Ханты-Мансийск",
                    "Урай",
                    "Павел Завальный",
                    "Единая Россия"
                ],
                "sentiment": "neutral",
                "confidence": 0.773,
                "place_name": "Куминский",
                "place_type": "поселок",
                "region": "Ханты-Мансийский Автономный округ",
                "rang": 3,
                "url": "https://ria.ru/20260403/khmao-2084926106.html"
            }
        },
        {
            "type": "Feature",
            "geometry": {
                "type": "Point",
                "coordinates": [
                    66.0214,
                    59.3322
                ]
            },
            "properties": {
                "news_id": "2084926106",
                "title": "Югорчане обсудили с депутатом Госдумы Завальным развитие округа",
                "date": "2026-04-03T10:14:00",
                "text_preview": "Вопросы развития территорий, реализация и дополнение положений Народной программы партии \"Единая Россия\" с учётом запросов югорчан стали ключевыми темами рабочих встреч с жителями городов и поселений ...",
                "tags": [
                    "Ханты-Мансийский Автономный Округ",
                    "Ханты-Мансийск",
                    "Урай",
                    "Павел Завальный",
                    "Единая Россия"
                ],
                "sentiment": "neutral",
                "confidence": 0.773,
                "place_name": "Мортка",
                "place_type": "поселок",
                "region": "Ханты-Мансийский Автономный округ",
                "rang": 3,
                "url": "https://ria.ru/20260403/khmao-2084926106.html"
            }
        },
        {
            "type": "Feature",
            "geometry": {
                "type": "Point",
                "coordinates": [
                    65.909249,
                    59.590322
                ]
            },
            "properties": {
                "news_id": "2084926106",
                "title": "Югорчане обсудили с депутатом Госдумы Завальным развитие округа",
                "date": "2026-04-03T10:14:00",
                "text_preview": "Вопросы развития территорий, реализация и дополнение положений Народной программы партии \"Единая Россия\" с учётом запросов югорчан стали ключевыми темами рабочих встреч с жителями городов и поселений ...",
                "tags": [
                    "Ханты-Мансийский Автономный Округ",
                    "Ханты-Мансийск",
                    "Урай",
                    "Павел Завальный",
                    "Единая Россия"
                ],
                "sentiment": "neutral",
                "confidence": 0.773,
                "place_name": "Междуреченский",
                "place_type": "поселок",
                "region": "Ханты-Мансийский Автономный округ",
                "rang": 3,
                "url": "https://ria.ru/20260403/khmao-2084926106.html"
            }
        },
        {
            "type": "Feature",
            "geometry": {
                "type": "Point",
                "coordinates": [
                    65.51564,
                    57.154949
                ]
            },
            "properties": {
                "news_id": "2085388971",
                "title": "Чемпионат по бодибилдингу в третий раз прошел в Сургутском районе Югры",
                "date": "2026-04-06T10:18:00",
                "text_preview": "Сургутский район Югры принял третий по счету окружной чемпионат по бодибилдингу, который собрал более 80 атлетов из городов Югры, а также Ямала и Тюмени, сообщил глава муниципалитета Андрей Трубецкой....",
                "tags": [
                    "Ханты-Мансийский Автономный Округ",
                    "Сургутский район",
                    "Тюмень",
                    "Ямал"
                ],
                "sentiment": "positive",
                "confidence": 0.635,
                "place_name": "Тюмень",
                "place_type": "город",
                "region": "Тюменская область",
                "rang": 3,
                "url": "https://ria.ru/20260406/chempionat-2085388971.html"
            }
        },
        {
            "type": "Feature",
            "geometry": {
                "type": "Point",
                "coordinates": [
                    65.26165,
                    58.09822
                ]
            },
            "properties": {
                "news_id": "2085388971",
                "title": "Чемпионат по бодибилдингу в третий раз прошел в Сургутском районе Югры",
                "date": "2026-04-06T10:18:00",
                "text_preview": "Сургутский район Югры принял третий по счету окружной чемпионат по бодибилдингу, который собрал более 80 атлетов из городов Югры, а также Ямала и Тюмени, сообщил глава муниципалитета Андрей Трубецкой....",
                "tags": [
                    "Ханты-Мансийский Автономный Округ",
                    "Сургутский район",
                    "Тюмень",
                    "Ямал"
                ],
                "sentiment": "positive",
                "confidence": 0.635,
                "place_name": "Белый Яр",
                "place_type": "поселок",
                "region": "Свердловская область",
                "rang": 3,
                "url": "https://ria.ru/20260406/chempionat-2085388971.html"
            }
        },
        {
            "type": "Feature",
            "geometry": {
                "type": "Point",
                "coordinates": [
                    73.218102,
                    61.057302
                ]
            },
            "properties": {
                "news_id": "2085909452",
                "title": "Сургутский район и Эрмитаж начинают сотрудничество в музейном деле",
                "date": "2026-04-08T15:25:00",
                "text_preview": "Сургутский район подписал соглашение о сотрудничестве с Государственным Эрмитажем, которое позволит улучшить музейную деятельность в муниципалитете, а также изучение археологических находок на Барсово...",
                "tags": [
                    "Ханты-Мансийский Автономный Округ",
                    "Сургутский район",
                    "Государственный Эрмитаж",
                    "Музеи",
                    "Археология",
                    "Ханты-Мансийский автономный округ"
                ],
                "sentiment": "neutral",
                "confidence": 0.765,
                "place_name": "Сургутский район",
                "place_type": "district",
                "region": "Ханты-Мансийский Автономный округ",
                "rang": 2,
                "url": "https://ria.ru/20260408/rajon-2085909452.html"
            }
        },
        {
            "type": "Feature",
            "geometry": {
                "type": "Point",
                "coordinates": [
                    69.006241,
                    61.00079
                ]
            },
            "properties": {
                "news_id": "2086747042",
                "title": "Форум \"Нефтяная столица\" собрал в Югре более тысячи участников",
                "date": "2026-04-13T11:06:00",
                "text_preview": "Международный форум \"Нефтяная столица\" собрал в Ханты-Мансийске более тысячи молодых специалистов нефтяных компаний, учёных, студентов и аспирантов отраслевых вузов, сотрудников научно-образовательных...",
                "tags": [
                    "Ханты-Мансийский Автономный Округ",
                    "Россия",
                    "Ханты-Мансийск"
                ],
                "sentiment": "neutral",
                "confidence": 0.759,
                "place_name": "Ханты-Мансийск",
                "place_type": "город",
                "region": "Ханты-Мансийский Автономный округ",
                "rang": 3,
                "url": "https://ria.ru/20260413/forum-2086747042.html"
            }
        },
        {
            "type": "Feature",
            "geometry": {
                "type": "Point",
                "coordinates": [
                    73.400993,
                    61.25716
                ]
            },
            "properties": {
                "news_id": "2087399745",
                "title": "Молодежный центр появится в студенческом общежитии Сургутского района",
                "date": "2026-04-16T16:52:00",
                "text_preview": "Современный молодежный центр \"Молодежка 10/3\" создадут на базе студенческого общежития Сургутского района Югры, проект стал победителем регионального конкурса молодежного инициативного бюджетирования,...",
                "tags": [],
                "sentiment": "neutral",
                "confidence": 0.75,
                "place_name": "Сургут",
                "place_type": "город",
                "region": "Ханты-Мансийский Автономный округ",
                "rang": 3,
                "url": "https://ria.ru/20260416/tsentr-2087399745.html"
            }
        },
        {
            "type": "Feature",
            "geometry": {
                "type": "Point",
                "coordinates": [
                    69.006241,
                    61.00079
                ]
            },
            "properties": {
                "news_id": "2087560618",
                "title": "Победителей турнира по шахматам имени Карпова назвали в Югре",
                "date": "2026-04-17T14:42:00",
                "text_preview": "XXIII Международный турнир по шахматам имени Анатолия Карпова завершился в Ханты-Мансийске, победителем и призерами в нем стали представители Белоруссии, Венгрии и Армении, сообщили в Югорской шахматн...",
                "tags": [
                    "Шахматы",
                    "турнир",
                    "Спорт"
                ],
                "sentiment": "neutral",
                "confidence": 0.705,
                "place_name": "Ханты-Мансийск",
                "place_type": "город",
                "region": "Ханты-Мансийский Автономный округ",
                "rang": 3,
                "url": "https://ria.ru/20260417/shakhmaty-2087560618.html"
            }
        },
        {
            "type": "Feature",
            "geometry": {
                "type": "Point",
                "coordinates": [
                    73.218102,
                    61.057302
                ]
            },
            "properties": {
                "news_id": "2088287339",
                "title": "Конкурс на грант главы для НКО стартовал в Сургутском районе",
                "date": "2026-04-22T10:09:00",
                "text_preview": "Конкурс на грант главы для некоммерческих организаций стартовал в Сургутском районе Югры с фондом в 12 миллионов рублей, гранты будут выдаваться на реализацию социальных проектов, сообщил глава муници...",
                "tags": [],
                "sentiment": "neutral",
                "confidence": 0.656,
                "place_name": "Сургутский район",
                "place_type": "district",
                "region": "Ханты-Мансийский Автономный округ",
                "rang": 2,
                "url": "https://ria.ru/20260422/konkurs-2088287339.html"
            }
        },
        {
            "type": "Feature",
            "geometry": {
                "type": "Point",
                "coordinates": [
                    65.51564,
                    57.154949
                ]
            },
            "properties": {
                "news_id": "2088287868",
                "title": "Кухарук поделился опытом Югры на форуме \"Малая Родина – сила России\"",
                "date": "2026-04-22T10:11:00",
                "text_preview": "Опыт Ханты-Мансийского автономного округа - Югры по взаимодействию муниципальной и региональной власти на форуме \"Малая Родина – сила России\" представил губернатор Руслан Кухарук, сообщается на сайте ...",
                "tags": [
                    "Руслан Кухарук",
                    "Форум"
                ],
                "sentiment": "neutral",
                "confidence": 0.711,
                "place_name": "Тюмень",
                "place_type": "город",
                "region": "Тюменская область",
                "rang": 3,
                "url": "https://ria.ru/20260422/kukharuk-2088287868.html"
            }
        },
        {
            "type": "Feature",
            "geometry": {
                "type": "Point",
                "coordinates": [
                    73.400993,
                    61.25716
                ]
            },
            "properties": {
                "news_id": "2088696480",
                "title": "Югра в 2025 году выполнила свои обязательства перед страной",
                "date": "2026-04-24T11:06:00",
                "text_preview": "Губернатор Ханты-Мансийского автономного округа Руслан Кухарук заявил, что регион достойно прожил 2025 год и выполнил все обязательства перед страной, выступая в региональном парламенте с отчетом о ре...",
                "tags": [
                    "Руслан Кухарук"
                ],
                "sentiment": "positive",
                "confidence": 0.76,
                "place_name": "Сургут",
                "place_type": "город",
                "region": "Ханты-Мансийский Автономный округ",
                "rang": 3,
                "url": "https://ria.ru/20260424/yugra-2088696480.html"
            }
        },
        {
            "type": "Feature",
            "geometry": {
                "type": "Point",
                "coordinates": [
                    73.218102,
                    61.057302
                ]
            },
            "properties": {
                "news_id": "2089405076",
                "title": "Учебно-тренировочная база появится в Сургутском районе Югры",
                "date": "2026-04-28T16:08:00",
                "text_preview": "Учебно-тренировочная база \"Лянторская ZAстава\" появится в Сургутском районе Югры, на создание проекта направят из окружного и районного бюджетов 24,4 миллионов рублей, сообщил глава района Андрей Труб...",
                "tags": [
                    "Общество"
                ],
                "sentiment": "neutral",
                "confidence": 0.778,
                "place_name": "Сургутский район",
                "place_type": "district",
                "region": "Ханты-Мансийский Автономный округ",
                "rang": 2,
                "url": "https://ria.ru/20260428/baza-2089405076.html"
            }
        },
        {
            "type": "Feature",
            "geometry": {
                "type": "Point",
                "coordinates": [
                    73.218102,
                    61.057302
                ]
            },
            "properties": {
                "news_id": "2090678226",
                "title": "Сургутский район занял 2-е место по реализации инициативных проектов в Югре",
                "date": "2026-05-05T17:43:00",
                "text_preview": "Сургутский район занял второе место по реализации инициативных проектов в Югре, набрав 60 баллов, и получил 13 миллионов рублей на поддержку новых идей, сообщил глава муниципалитета Андрей Трубецкой. ...",
                "tags": [
                    "Проект",
                    "Финансирование"
                ],
                "sentiment": "neutral",
                "confidence": 0.63,
                "place_name": "Сургутский район",
                "place_type": "district",
                "region": "Ханты-Мансийский Автономный округ",
                "rang": 2,
                "url": "https://ria.ru/20260505/surgutskiy-rayon-2090678226.html"
            }
        }
    ]
}