{
    "type": "FeatureCollection",
    "features": [
        {
            "type": "Feature",
            "geometry": {
                "type": "Point",
                "coordinates": [
                    64.8083,
                    55.45
                ]
            },
            "properties": {
                "news_id": "2069862105",
                "title": "Суд арестовал экс-супругов из курганской Шумихи, обворовывавших бойцов СВО",
                "date": "2026-01-23T13:46:00",
                "text_preview": "Суд в Курганской области арестовал бывших мужа и жену, похищавших выплаты участникам специальной военной операции, сообщил пресс-центр прокуратуры региона. \"В соответствии с позицией прокурора сегодня...",
                "tags": [
                    "Происшествия",
                    "Курганская область",
                    "Россия",
                    "Свердловская область"
                ],
                "sentiment": "negative",
                "confidence": 0.576,
                "place_name": "Курганская область",
                "place_type": "region",
                "region": "Курганская область",
                "rang": 1,
                "url": "https://ria.ru/20260123/sud-2069862105.html"
            }
        },
        {
            "type": "Feature",
            "geometry": {
                "type": "Point",
                "coordinates": [
                    61.53333,
                    58.58333
                ]
            },
            "properties": {
                "news_id": "2069862105",
                "title": "Суд арестовал экс-супругов из курганской Шумихи, обворовывавших бойцов СВО",
                "date": "2026-01-23T13:46:00",
                "text_preview": "Суд в Курганской области арестовал бывших мужа и жену, похищавших выплаты участникам специальной военной операции, сообщил пресс-центр прокуратуры региона. \"В соответствии с позицией прокурора сегодня...",
                "tags": [
                    "Происшествия",
                    "Курганская область",
                    "Россия",
                    "Свердловская область"
                ],
                "sentiment": "negative",
                "confidence": 0.576,
                "place_name": "Свердловская область",
                "place_type": "region",
                "region": "Свердловская область",
                "rang": 1,
                "url": "https://ria.ru/20260123/sud-2069862105.html"
            }
        },
        {
            "type": "Feature",
            "geometry": {
                "type": "Point",
                "coordinates": [
                    64.474064,
                    56.04315
                ]
            },
            "properties": {
                "news_id": "2069891003",
                "title": "Под Курганом мать сломала ногу, спасая пятерых детей из горящего дома",
                "date": "2026-01-23T15:15:00",
                "text_preview": "Многодетная мать, спасая своих пятерых детей при пожаре в многоквартирном доме в Каргапольском районе Курганской области, сломала ногу, рассказали РИА Новости в пресс-службе главного управления МЧС Ро...",
                "tags": [
                    "Происшествия",
                    "Курган",
                    "Курганская область",
                    "Россия",
                    "МЧС России (Министерство РФ по делам гражданской обороны, чрезвычайным ситуациям и ликвидации последствий стихийных бедствий)"
                ],
                "sentiment": "negative",
                "confidence": 0.652,
                "place_name": "Усть-Миасское",
                "place_type": "село",
                "region": "Курганская область",
                "rang": 3,
                "url": "https://ria.ru/20260123/mat-2069891003.html"
            }
        },
        {
            "type": "Feature",
            "geometry": {
                "type": "Point",
                "coordinates": [
                    72.333068,
                    66.177267
                ]
            },
            "properties": {
                "news_id": "2071600148",
                "title": "Названы регионы с самой доступной стоимостью бензина",
                "date": "2026-02-02T00:26:00",
                "text_preview": "Больше всего топлива на свои среднемесячные зарплаты могут купить жители Москвы, Чукотки и Ямала, меньше всего – жители Ингушетии и Дагестана, свидетельствует исследование РИА Новости по доступности б...",
                "tags": [
                    "Россия",
                    "Москва",
                    "Республика Дагестан",
                    "АИ-92",
                    "Экономика"
                ],
                "sentiment": "neutral",
                "confidence": 0.748,
                "place_name": "Ямало-Ненецкий Автономный округ",
                "place_type": "region",
                "region": "Ямало-Ненецкий Автономный округ",
                "rang": 1,
                "url": "https://ria.ru/20260202/benzin-2071600148.html"
            }
        },
        {
            "type": "Feature",
            "geometry": {
                "type": "Point",
                "coordinates": [
                    60.597652,
                    54.839841
                ]
            },
            "properties": {
                "news_id": "2071600148",
                "title": "Названы регионы с самой доступной стоимостью бензина",
                "date": "2026-02-02T00:26:00",
                "text_preview": "Больше всего топлива на свои среднемесячные зарплаты могут купить жители Москвы, Чукотки и Ямала, меньше всего – жители Ингушетии и Дагестана, свидетельствует исследование РИА Новости по доступности б...",
                "tags": [
                    "Россия",
                    "Москва",
                    "Республика Дагестан",
                    "АИ-92",
                    "Экономика"
                ],
                "sentiment": "neutral",
                "confidence": 0.748,
                "place_name": "Челябинская область",
                "place_type": "region",
                "region": "Челябинская область",
                "rang": 1,
                "url": "https://ria.ru/20260202/benzin-2071600148.html"
            }
        },
        {
            "type": "Feature",
            "geometry": {
                "type": "Point",
                "coordinates": [
                    64.8083,
                    55.45
                ]
            },
            "properties": {
                "news_id": "2071600148",
                "title": "Названы регионы с самой доступной стоимостью бензина",
                "date": "2026-02-02T00:26:00",
                "text_preview": "Больше всего топлива на свои среднемесячные зарплаты могут купить жители Москвы, Чукотки и Ямала, меньше всего – жители Ингушетии и Дагестана, свидетельствует исследование РИА Новости по доступности б...",
                "tags": [
                    "Россия",
                    "Москва",
                    "Республика Дагестан",
                    "АИ-92",
                    "Экономика"
                ],
                "sentiment": "neutral",
                "confidence": 0.748,
                "place_name": "Курганская область",
                "place_type": "region",
                "region": "Курганская область",
                "rang": 1,
                "url": "https://ria.ru/20260202/benzin-2071600148.html"
            }
        },
        {
            "type": "Feature",
            "geometry": {
                "type": "Point",
                "coordinates": [
                    64.8083,
                    55.45
                ]
            },
            "properties": {
                "news_id": "2072518037",
                "title": "В Курганской области санитарке дали десять лет колонии за убийство девочки",
                "date": "2026-02-05T17:01:00",
                "text_preview": "Суд назначил 10 лет колонии санитарке дома-интерната для умственно отсталых детей в Курганской области, обвиняемой в убийстве 9-летней девочки, сообщил пресс-центр прокуратуры региона. По данным проку...",
                "tags": [
                    "Происшествия",
                    "Курганская область",
                    "Россия"
                ],
                "sentiment": "neutral",
                "confidence": 0.594,
                "place_name": "Курганская область",
                "place_type": "region",
                "region": "Курганская область",
                "rang": 1,
                "url": "https://ria.ru/20260205/sanitarka-2072518037.html"
            }
        },
        {
            "type": "Feature",
            "geometry": {
                "type": "Point",
                "coordinates": [
                    64.8083,
                    55.45
                ]
            },
            "properties": {
                "news_id": "2072597972",
                "title": "Задержанного главу департамента Чукотки отправили в Москву",
                "date": "2026-02-06T07:00:00",
                "text_preview": "Задержанного начальника департамента сельского хозяйства и продовольствия Чукотки Павла Кощеева отправили в Москву, где ему будет избираться мера пресечения, сообщили РИА Новости в правоохранительных ...",
                "tags": [
                    "Происшествия",
                    "Чукотка",
                    "Москва",
                    "Курганская область",
                    "Владислав Кузнецов"
                ],
                "sentiment": "neutral",
                "confidence": 0.879,
                "place_name": "Курганская область",
                "place_type": "region",
                "region": "Курганская область",
                "rang": 1,
                "url": "https://ria.ru/20260206/departament-2072597972.html"
            }
        },
        {
            "type": "Feature",
            "geometry": {
                "type": "Point",
                "coordinates": [
                    64.8083,
                    55.45
                ]
            },
            "properties": {
                "news_id": "2076285911",
                "title": "Названы регионы-лидеры по качеству жизни",
                "date": "2026-02-24T00:37:00",
                "text_preview": "Москва и Санкт-Петербург лидируют в рейтинге регионов РФ по качеству жизни, свидетельствует исследование РИА Новости. Эксперты РИА Новости подготовили четырнадцатый по счету Рейтинг регионов по качест...",
                "tags": [
                    "Общество",
                    "Россия",
                    "Ростовская область",
                    "Ленинградская область",
                    "Федеральная служба государственной статистики (Росстат)"
                ],
                "sentiment": "neutral",
                "confidence": 0.776,
                "place_name": "Курганская область",
                "place_type": "region",
                "region": "Курганская область",
                "rang": 1,
                "url": "https://ria.ru/20260224/reyting-2076285911.html"
            }
        },
        {
            "type": "Feature",
            "geometry": {
                "type": "Point",
                "coordinates": [
                    68.421673,
                    57.199742
                ]
            },
            "properties": {
                "news_id": "2076285911",
                "title": "Названы регионы-лидеры по качеству жизни",
                "date": "2026-02-24T00:37:00",
                "text_preview": "Москва и Санкт-Петербург лидируют в рейтинге регионов РФ по качеству жизни, свидетельствует исследование РИА Новости. Эксперты РИА Новости подготовили четырнадцатый по счету Рейтинг регионов по качест...",
                "tags": [
                    "Общество",
                    "Россия",
                    "Ростовская область",
                    "Ленинградская область",
                    "Федеральная служба государственной статистики (Росстат)"
                ],
                "sentiment": "neutral",
                "confidence": 0.776,
                "place_name": "Тюменская область",
                "place_type": "region",
                "region": "Тюменская область",
                "rang": 1,
                "url": "https://ria.ru/20260224/reyting-2076285911.html"
            }
        },
        {
            "type": "Feature",
            "geometry": {
                "type": "Point",
                "coordinates": [
                    69.761376,
                    61.328325
                ]
            },
            "properties": {
                "news_id": "2076285911",
                "title": "Названы регионы-лидеры по качеству жизни",
                "date": "2026-02-24T00:37:00",
                "text_preview": "Москва и Санкт-Петербург лидируют в рейтинге регионов РФ по качеству жизни, свидетельствует исследование РИА Новости. Эксперты РИА Новости подготовили четырнадцатый по счету Рейтинг регионов по качест...",
                "tags": [
                    "Общество",
                    "Россия",
                    "Ростовская область",
                    "Ленинградская область",
                    "Федеральная служба государственной статистики (Росстат)"
                ],
                "sentiment": "neutral",
                "confidence": 0.776,
                "place_name": "Ханты-Мансийский Автономный округ",
                "place_type": "region",
                "region": "Ханты-Мансийский Автономный округ",
                "rang": 1,
                "url": "https://ria.ru/20260224/reyting-2076285911.html"
            }
        },
        {
            "type": "Feature",
            "geometry": {
                "type": "Point",
                "coordinates": [
                    64.8083,
                    55.45
                ]
            },
            "properties": {
                "news_id": "2076531631",
                "title": "Названы регионы России с самым дешевым бензином",
                "date": "2026-02-25T02:56:00",
                "text_preview": "Самая низкая средняя цена литра бензина на заправках в России по итогам января была в Курганской, Томской областях и Алтайском крае, выяснило РИА Новости, проанализировав данные Росстата. По данным Ро...",
                "tags": [
                    "Экономика",
                    "Россия",
                    "Томская область",
                    "Алтайский край",
                    "Федеральная служба государственной статистики (Росстат)"
                ],
                "sentiment": "neutral",
                "confidence": 0.831,
                "place_name": "Курганская область",
                "place_type": "region",
                "region": "Курганская область",
                "rang": 1,
                "url": "https://ria.ru/20260225/benzin-2076531631.html"
            }
        },
        {
            "type": "Feature",
            "geometry": {
                "type": "Point",
                "coordinates": [
                    67.895127,
                    55.066164
                ]
            },
            "properties": {
                "news_id": "2076829357",
                "title": "На жителя Московской области завели уголовное дело за вывоз двигателей",
                "date": "2026-02-26T11:04:00",
                "text_preview": "Уголовное дело о контрабанде возбудили в отношении жителя Московской области, который пытался через автомобильный пункт пропуска в Курганской области незаконно вывезти 9 дизельных двигателей, которые ...",
                "tags": [
                    "Происшествия",
                    "Курганская область",
                    "Россия",
                    "Московская область (Подмосковье)"
                ],
                "sentiment": "negative",
                "confidence": 0.812,
                "place_name": "Петухово",
                "place_type": "город",
                "region": "Курганская область",
                "rang": 3,
                "url": "https://ria.ru/20260226/podmoskove-2076829357.html"
            }
        },
        {
            "type": "Feature",
            "geometry": {
                "type": "Point",
                "coordinates": [
                    64.8083,
                    55.45
                ]
            },
            "properties": {
                "news_id": "2077241347",
                "title": "В Курганской области осужденного задержали в день выхода из колонии",
                "date": "2026-02-27T17:58:00",
                "text_preview": "Отбывшего наказание за тяжкое преступление осужденного задержали в день освобождения из колонии в Курганской области за организацию ячейки запрещенного в РФ экстремистского движения АУЕ*, возбуждено у...",
                "tags": [
                    "Происшествия",
                    "Россия",
                    "Курганская область"
                ],
                "sentiment": "negative",
                "confidence": 0.811,
                "place_name": "Курганская область",
                "place_type": "region",
                "region": "Курганская область",
                "rang": 1,
                "url": "https://ria.ru/20260227/koloniya-2077241347.html"
            }
        },
        {
            "type": "Feature",
            "geometry": {
                "type": "Point",
                "coordinates": [
                    64.8083,
                    55.45
                ]
            },
            "properties": {
                "news_id": "2078951973",
                "title": "Весеннее половодье затронет 42 региона России",
                "date": "2026-03-06T11:15:00",
                "text_preview": "Высокий уровень воды в российских реках в период весеннего половодья из-за превышения запасов снега прогнозируется на территории 42 регионов страны, предупреждает МЧС РФ. \"В текущем (2026 - ред.) году...",
                "tags": [
                    "Россия",
                    "Красноярский край",
                    "Республика Бурятия",
                    "МЧС России (Министерство РФ по делам гражданской обороны, чрезвычайным ситуациям и ликвидации последствий стихийных бедствий)",
                    "Гидрометцентр",
                    "Происшествия"
                ],
                "sentiment": "neutral",
                "confidence": 0.72,
                "place_name": "Курганская область",
                "place_type": "region",
                "region": "Курганская область",
                "rang": 1,
                "url": "https://ria.ru/20260306/polovode-2078951973.html"
            }
        },
        {
            "type": "Feature",
            "geometry": {
                "type": "Point",
                "coordinates": [
                    70.340885,
                    55.788106
                ]
            },
            "properties": {
                "news_id": "2079478708",
                "title": "Метеоролог предупредила о новых погодных аномалиях в России",
                "date": "2026-03-09T09:40:00",
                "text_preview": "Сильные морозы вернутся в ряд регионов в России в ближайшие дни, рассказала РИА Новости ведущий метеоролог Гидрометцентра России Марина Макарова. По словам синоптика, похолодание затронет также Свердл...",
                "tags": [
                    "Общество",
                    "Россия",
                    "Урал",
                    "Пермский край",
                    "Марина Макарова",
                    "Гидрометцентр",
                    "Снегопад в Москве"
                ],
                "sentiment": "neutral",
                "confidence": 0.709,
                "place_name": "Свердловская",
                "place_type": "деревня",
                "region": "Тюменская область",
                "rang": 3,
                "url": "https://ria.ru/20260309/morozy-2079478708.html"
            }
        },
        {
            "type": "Feature",
            "geometry": {
                "type": "Point",
                "coordinates": [
                    64.8083,
                    55.45
                ]
            },
            "properties": {
                "news_id": "2079859281",
                "title": "Названы регионы, где россияне с детьми чаще всего бронируют квартиры",
                "date": "2026-03-11T08:28:00",
                "text_preview": "Россияне с детьми этой весной чаще всего бронируют квартиры посуточно в Удмуртии, Бурятии, а также Омской и Ульяновской областях, выяснили аналитики \"Авито Путешествий\" на основании собственных данных...",
                "tags": [
                    "Туризм",
                    "Курганская область",
                    "Республика Алтай",
                    "Россия",
                    "Новости - Туризм"
                ],
                "sentiment": "neutral",
                "confidence": 0.88,
                "place_name": "Курганская область",
                "place_type": "region",
                "region": "Курганская область",
                "rang": 1,
                "url": "https://ria.ru/20260311/otdykh-2079859281.html"
            }
        },
        {
            "type": "Feature",
            "geometry": {
                "type": "Point",
                "coordinates": [
                    65.344316,
                    55.441606
                ]
            },
            "properties": {
                "news_id": "2080016110",
                "title": "Курганские власти опровергли сообщения о видеокамерах в школьном туалете",
                "date": "2026-03-11T17:02:00",
                "text_preview": "Власти Кургана опровергли информацию о том, что в женском туалете школы №22 установлены видеокамеры. СМИ ранее в среду сообщили, что в курганской школе №22 учащиеся заметили камеру в женском туалете н...",
                "tags": [
                    "Курган",
                    "Общество",
                    "Образование - Общество",
                    "Курганская область"
                ],
                "sentiment": "neutral",
                "confidence": 0.823,
                "place_name": "Курган",
                "place_type": "город",
                "region": "Курганская область",
                "rang": 3,
                "url": "https://ria.ru/20260311/videokamery-2080016110.html"
            }
        },
        {
            "type": "Feature",
            "geometry": {
                "type": "Point",
                "coordinates": [
                    65.344316,
                    55.441606
                ]
            },
            "properties": {
                "news_id": "2080142996",
                "title": "В Кургане уроженку Украины лишили гражданства России за угрозу безопасности",
                "date": "2026-03-12T10:04:00",
                "text_preview": "Уроженку Украины, работавшую на предприятии оборонно-промышленного комплекса Кургана, лишили гражданства РФ из-за ее действий, создающих угрозу национальной безопасности, сообщила пресс-служба региона...",
                "tags": [
                    "Происшествия",
                    "Россия",
                    "Украина",
                    "Курган"
                ],
                "sentiment": "negative",
                "confidence": 0.709,
                "place_name": "Курган",
                "place_type": "город",
                "region": "Курганская область",
                "rang": 3,
                "url": "https://ria.ru/20260312/kurgan-2080142996.html"
            }
        },
        {
            "type": "Feature",
            "geometry": {
                "type": "Point",
                "coordinates": [
                    64.8083,
                    55.45
                ]
            },
            "properties": {
                "news_id": "2081623554",
                "title": "В Курганской области при взрыве газа в частном доме пострадала женщина",
                "date": "2026-03-19T10:15:00",
                "text_preview": "Взрыв природного газа произошел в частном жилом доме в селе Шмаково Курганской области, пострадала жительница дома, идет разбор завалов и поиск ее супруга, сообщил пресс-центр ГУМЧС России по региону....",
                "tags": [
                    "Происшествия",
                    "Россия",
                    "Курганская область",
                    "МЧС России (Министерство РФ по делам гражданской обороны, чрезвычайным ситуациям и ликвидации последствий стихийных бедствий)"
                ],
                "sentiment": "neutral",
                "confidence": 0.629,
                "place_name": "Курганская область",
                "place_type": "region",
                "region": "Курганская область",
                "rang": 1,
                "url": "https://ria.ru/20260319/vzryv-2081623554.html"
            }
        },
        {
            "type": "Feature",
            "geometry": {
                "type": "Point",
                "coordinates": [
                    64.8083,
                    55.45
                ]
            },
            "properties": {
                "news_id": "2081628022",
                "title": "В Курганской области в доме, где взорвался газ, нашли тело мужчины",
                "date": "2026-03-19T10:34:00",
                "text_preview": "Обнаружено тело мужчины - хозяина частного дома в Курганской области, где при взрыве природного газа пострадала женщина, возбуждено уголовное дело, сообщило региональное СУСК РФ. Как сообщал пресс-цен...",
                "tags": [
                    "Происшествия",
                    "Россия",
                    "Курганская область"
                ],
                "sentiment": "neutral",
                "confidence": 0.617,
                "place_name": "Курганская область",
                "place_type": "region",
                "region": "Курганская область",
                "rang": 1,
                "url": "https://ria.ru/20260319/vzryv-2081628022.html"
            }
        },
        {
            "type": "Feature",
            "geometry": {
                "type": "Point",
                "coordinates": [
                    64.8083,
                    55.45
                ]
            },
            "properties": {
                "news_id": "2082211806",
                "title": "Назван самый опасный для человека цвет льда в марте",
                "date": "2026-03-22T06:00:00",
                "text_preview": "Самым опасным для человека считается лёд, имеющий желтый оттенок, в таком случае выход на лёд водоема категорически запрещен, рассказала РИА Новости руководитель пресс-службы главного управления МЧС Р...",
                "tags": [
                    "Общество",
                    "Россия",
                    "Курганская область",
                    "МЧС России (Министерство РФ по делам гражданской обороны, чрезвычайным ситуациям и ликвидации последствий стихийных бедствий)"
                ],
                "sentiment": "neutral",
                "confidence": 0.78,
                "place_name": "Курганская область",
                "place_type": "region",
                "region": "Курганская область",
                "rang": 1,
                "url": "https://ria.ru/20260322/led-2082211806.html"
            }
        },
        {
            "type": "Feature",
            "geometry": {
                "type": "Point",
                "coordinates": [
                    67.895127,
                    55.066164
                ]
            },
            "properties": {
                "news_id": "2082501782",
                "title": "В Курганской области двое детей погибли при пожаре в жилом доме",
                "date": "2026-03-23T21:44:00",
                "text_preview": "Двое детей двух и пяти лет погибли при пожаре в квартире жилого дома в Курганской области, возбуждено уголовное дело, сообщило региональное СУСК РФ. По данным пресс-центра регионального ГУМЧС, в город...",
                "tags": [
                    "Происшествия",
                    "Россия",
                    "Курганская область",
                    "Следственный комитет России (СК РФ)"
                ],
                "sentiment": "neutral",
                "confidence": 0.706,
                "place_name": "Петухово",
                "place_type": "город",
                "region": "Курганская область",
                "rang": 3,
                "url": "https://ria.ru/20260323/deti-2082501782.html"
            }
        },
        {
            "type": "Feature",
            "geometry": {
                "type": "Point",
                "coordinates": [
                    64.8083,
                    55.45
                ]
            },
            "properties": {
                "news_id": "2082996841",
                "title": "Матвиенко заявила о прорыве в дорожном строительстве в Курганской области",
                "date": "2026-03-26T10:39:00",
                "text_preview": "Курганская область достигла прорыва в дорожном строительстве, она также стала одним из лидеров по социально-экономическим показателям, заявила председатель Совета Федерации Валентина Матвиенко. Она та...",
                "tags": [
                    "Курганская область",
                    "Курган",
                    "Валентина Матвиенко",
                    "Совет Федерации РФ"
                ],
                "sentiment": "neutral",
                "confidence": 0.567,
                "place_name": "Курганская область",
                "place_type": "region",
                "region": "Курганская область",
                "rang": 1,
                "url": "https://ria.ru/20260326/matvienko-2082996841.html"
            }
        },
        {
            "type": "Feature",
            "geometry": {
                "type": "Point",
                "coordinates": [
                    64.8083,
                    55.45
                ]
            },
            "properties": {
                "news_id": "2087659397",
                "title": "Спасатели рассказали, когда в России запрещается сжигать мусор на дачах",
                "date": "2026-04-17T02:52:00",
                "text_preview": "Введение особого противопожарного режима, кроме полного запрета на посещение лесов и въезда в них транспорта, также предусматривает запрет на сжигание мусора в металлических бочках на приусадебных уча...",
                "tags": [
                    "Россия",
                    "МЧС России (Министерство РФ по делам гражданской обороны, чрезвычайным ситуациям и ликвидации последствий стихийных бедствий)",
                    "Мособлпожспас"
                ],
                "sentiment": "neutral",
                "confidence": 0.756,
                "place_name": "Курганская область",
                "place_type": "region",
                "region": "Курганская область",
                "rang": 1,
                "url": "https://ria.ru/20260418/musor-2087659397.html"
            }
        },
        {
            "type": "Feature",
            "geometry": {
                "type": "Point",
                "coordinates": [
                    64.8083,
                    55.45
                ]
            },
            "properties": {
                "news_id": "2088859691",
                "title": "В Курганской области объявили угрозу атаки БПЛА",
                "date": "2026-04-25T07:56:00",
                "text_preview": "Режимы \"Угроза беспилотной опасности\" и \"Ковер\" введены в Курганской области, сообщается в официальном канале правительства региона на платформе \"Макс\". \"На территории Курганской области пролета беспи...",
                "tags": [
                    "Специальная военная операция на Украине"
                ],
                "sentiment": "neutral",
                "confidence": 0.696,
                "place_name": "Курганская область",
                "place_type": "region",
                "region": "Курганская область",
                "rang": 1,
                "url": "https://ria.ru/20260425/bpla-2088859691.html"
            }
        },
        {
            "type": "Feature",
            "geometry": {
                "type": "Point",
                "coordinates": [
                    72.333068,
                    66.177267
                ]
            },
            "properties": {
                "news_id": "2090336114",
                "title": "Названы российские регионы с наиболее быстрым ростом зарплат",
                "date": "2026-05-03T00:12:00",
                "text_preview": "Первыми регионами России, где зарплата половины работников превысит отметку в 200 тысяч рублей, станут Ямало-Ненецкий и Чукотский автономный округа, а также Татарстан, больше всего времени на достижен...",
                "tags": [
                    "Россия",
                    "Республика Татарстан (Татарстан)",
                    "Чукотский автономный округ",
                    "РИА Рейтинг"
                ],
                "sentiment": "neutral",
                "confidence": 0.819,
                "place_name": "Ямало-Ненецкий Автономный округ",
                "place_type": "region",
                "region": "Ямало-Ненецкий Автономный округ",
                "rang": 1,
                "url": "https://ria.ru/20260504/zarplaty-2090336114.html"
            }
        },
        {
            "type": "Feature",
            "geometry": {
                "type": "Point",
                "coordinates": [
                    69.761376,
                    61.328325
                ]
            },
            "properties": {
                "news_id": "2090336114",
                "title": "Названы российские регионы с наиболее быстрым ростом зарплат",
                "date": "2026-05-03T00:12:00",
                "text_preview": "Первыми регионами России, где зарплата половины работников превысит отметку в 200 тысяч рублей, станут Ямало-Ненецкий и Чукотский автономный округа, а также Татарстан, больше всего времени на достижен...",
                "tags": [
                    "Россия",
                    "Республика Татарстан (Татарстан)",
                    "Чукотский автономный округ",
                    "РИА Рейтинг"
                ],
                "sentiment": "neutral",
                "confidence": 0.819,
                "place_name": "Ханты-Мансийский Автономный округ",
                "place_type": "region",
                "region": "Ханты-Мансийский Автономный округ",
                "rang": 1,
                "url": "https://ria.ru/20260504/zarplaty-2090336114.html"
            }
        },
        {
            "type": "Feature",
            "geometry": {
                "type": "Point",
                "coordinates": [
                    60.597652,
                    54.839841
                ]
            },
            "properties": {
                "news_id": "2090336114",
                "title": "Названы российские регионы с наиболее быстрым ростом зарплат",
                "date": "2026-05-03T00:12:00",
                "text_preview": "Первыми регионами России, где зарплата половины работников превысит отметку в 200 тысяч рублей, станут Ямало-Ненецкий и Чукотский автономный округа, а также Татарстан, больше всего времени на достижен...",
                "tags": [
                    "Россия",
                    "Республика Татарстан (Татарстан)",
                    "Чукотский автономный округ",
                    "РИА Рейтинг"
                ],
                "sentiment": "neutral",
                "confidence": 0.819,
                "place_name": "Челябинская область",
                "place_type": "region",
                "region": "Челябинская область",
                "rang": 1,
                "url": "https://ria.ru/20260504/zarplaty-2090336114.html"
            }
        },
        {
            "type": "Feature",
            "geometry": {
                "type": "Point",
                "coordinates": [
                    64.8083,
                    55.45
                ]
            },
            "properties": {
                "news_id": "2090526704",
                "title": "В Курганской области объявили угрозу ракетной атаки",
                "date": "2026-05-04T01:38:00",
                "text_preview": "Угроза ракетной опасности объявлена на территории Курганской области, сообщила пресс-служба правительства региона. \"В Курганской области объявлен режим \"Ракетная опасность\", работают дежурные службы и...",
                "tags": [
                    "Специальная военная операция на Украине"
                ],
                "sentiment": "neutral",
                "confidence": 0.698,
                "place_name": "Курганская область",
                "place_type": "region",
                "region": "Курганская область",
                "rang": 1,
                "url": "https://ria.ru/20260505/ugroza-2090526704.html"
            }
        },
        {
            "type": "Feature",
            "geometry": {
                "type": "Point",
                "coordinates": [
                    64.8083,
                    55.45
                ]
            },
            "properties": {
                "news_id": "2090532277",
                "title": "В Курганской области отменили режим ракетной опасности",
                "date": "2026-05-05T03:16:00",
                "text_preview": "Режим ракетной опасности отменен на территории Курганской области, сообщила пресс-служба правительства региона. \"В Курганской области отменен режим \"Ракетная опасность\", - говорится в сообщении на пла...",
                "tags": [
                    "Специальная военная операция на Украине",
                    "Безопасность"
                ],
                "sentiment": "neutral",
                "confidence": 0.759,
                "place_name": "Курганская область",
                "place_type": "region",
                "region": "Курганская область",
                "rang": 1,
                "url": "https://ria.ru/20260505/rezhim-2090532277.html"
            }
        },
        {
            "type": "Feature",
            "geometry": {
                "type": "Point",
                "coordinates": [
                    65.344316,
                    55.441606
                ]
            },
            "properties": {
                "news_id": "2090661352",
                "title": "В Курганской области предъявили обвинение двум подросткам по делу о теракте",
                "date": "2026-05-05T16:39:00",
                "text_preview": "Следственные органы предъявили обвинение двум 16-летним жителям Курганской области по делу о теракте - они подожгли железнодорожное оборудование, оба арестованы, сообщило Центральное МСУТ СК России. П...",
                "tags": [
                    "Происшествия",
                    "Россия",
                    "Следственный комитет России (СК РФ)",
                    "Telegram"
                ],
                "sentiment": "negative",
                "confidence": 0.816,
                "place_name": "Курган",
                "place_type": "город",
                "region": "Курганская область",
                "rang": 3,
                "url": "https://ria.ru/20260505/podrostki-2090661352.html"
            }
        },
        {
            "type": "Feature",
            "geometry": {
                "type": "Point",
                "coordinates": [
                    64.8083,
                    55.45
                ]
            },
            "properties": {
                "news_id": "2091894891",
                "title": "Назван регион с самой высокой средней ставкой по ипотеке в России",
                "date": "2026-05-12T04:05:00",
                "text_preview": "Самая высокая средняя ставка по ипотеке в России в марте была в Ингушетии – 16,01%, следует из данных Центробанка, которые проанализировало РИА Новости. На втором месте по этому показателю оказалась Ч...",
                "tags": [
                    "Экономика",
                    "Россия",
                    "Новгородская область",
                    "Саратовская область"
                ],
                "sentiment": "neutral",
                "confidence": 0.823,
                "place_name": "Курганская область",
                "place_type": "region",
                "region": "Курганская область",
                "rang": 1,
                "url": "https://ria.ru/20260512/ipoteka-2091894891.html"
            }
        },
        {
            "type": "Feature",
            "geometry": {
                "type": "Point",
                "coordinates": [
                    60.597652,
                    54.839841
                ]
            },
            "properties": {
                "news_id": "2091894891",
                "title": "Назван регион с самой высокой средней ставкой по ипотеке в России",
                "date": "2026-05-12T04:05:00",
                "text_preview": "Самая высокая средняя ставка по ипотеке в России в марте была в Ингушетии – 16,01%, следует из данных Центробанка, которые проанализировало РИА Новости. На втором месте по этому показателю оказалась Ч...",
                "tags": [
                    "Экономика",
                    "Россия",
                    "Новгородская область",
                    "Саратовская область"
                ],
                "sentiment": "neutral",
                "confidence": 0.823,
                "place_name": "Челябинская область",
                "place_type": "region",
                "region": "Челябинская область",
                "rang": 1,
                "url": "https://ria.ru/20260512/ipoteka-2091894891.html"
            }
        }
    ]
}