{
    "type": "FeatureCollection",
    "features": [
        {
            "type": "Feature",
            "geometry": {
                "type": "Point",
                "coordinates": [
                    65.51564,
                    57.154949
                ]
            },
            "properties": {
                "news_id": "2062485087",
                "title": "Детсад и школу начнут строить в Тюмени с нового года",
                "date": "2025-12-16T00:00:00",
                "text_preview": "После новогодних праздников строители приступят к возведению школы и детского сада в заречной части города Тюмени, соглашение об этом заключили правительство Тюменской области, администрация города и ...",
                "tags": [
                    "Тюменская область",
                    "Тюменская область",
                    "Александр Моор",
                    "Тюмень"
                ],
                "sentiment": "neutral",
                "confidence": 0.613,
                "place_name": "Тюмень",
                "place_type": "город",
                "region": "Тюменская область",
                "rang": 3,
                "url": "https://ria.ru/20251216/tyumen-2062485087.html"
            }
        },
        {
            "type": "Feature",
            "geometry": {
                "type": "Point",
                "coordinates": [
                    68.421673,
                    57.199742
                ]
            },
            "properties": {
                "news_id": "2063058056",
                "title": "Тюменским участникам СВО будут давать строевую древесину без очереди",
                "date": "2025-12-18T00:00:00",
                "text_preview": "Участникам специальной военной операции и их семьям в Тюменской области предоставили право на первоочередное получение древесины для строительства и ремонта жилья, ранее этой льготой могли воспользова...",
                "tags": [
                    "Тюменская область",
                    "Россия",
                    "Тюменская область",
                    "Александр Моор"
                ],
                "sentiment": "neutral",
                "confidence": 0.715,
                "place_name": "Тюменская область",
                "place_type": "region",
                "region": "Тюменская область",
                "rang": 1,
                "url": "https://ria.ru/20251218/svo-2063058056.html"
            }
        },
        {
            "type": "Feature",
            "geometry": {
                "type": "Point",
                "coordinates": [
                    68.5944,
                    58.1286
                ]
            },
            "properties": {
                "news_id": "2063427462",
                "title": "Многодетной тюменской семье помогут получить федеральные льготы",
                "date": "2025-12-19T00:00:00",
                "text_preview": "Многодетной матери Гульнаре Баязитовой из села Абалак Тюменской области, которая рассказала президенту России Владимиру Путину о сложности назначения единого пособия на детей, помогут оформить докумен...",
                "tags": [
                    "Тюменская область",
                    "Общество",
                    "Тюменская область",
                    "Александр Моор",
                    "Владимир Путин",
                    "Россия"
                ],
                "sentiment": "neutral",
                "confidence": 0.527,
                "place_name": "Абалак",
                "place_type": "село",
                "region": "Тюменская область",
                "rang": 3,
                "url": "https://ria.ru/20251219/lgoty-2063427462.html"
            }
        },
        {
            "type": "Feature",
            "geometry": {
                "type": "Point",
                "coordinates": [
                    68.421673,
                    57.199742
                ]
            },
            "properties": {
                "news_id": "2064094632",
                "title": "Более 80 машин для ЖКХ поставят в муниципалитеты Тюменской области",
                "date": "2025-12-23T00:00:00",
                "text_preview": "В города и сёла Тюменской области будет направлено 84 единицы спецтехники, обновление автопарка проводится согласно заключенным концессионным соглашениям с \"Росводоканал Тюмень\", сообщил губернатор Ал...",
                "tags": [
                    "Тюменская область",
                    "Происшествия",
                    "Тюменская область",
                    "Александр Моор"
                ],
                "sentiment": "neutral",
                "confidence": 0.647,
                "place_name": "Тюменская область",
                "place_type": "region",
                "region": "Тюменская область",
                "rang": 1,
                "url": "https://ria.ru/20251223/oblast-2064094632.html"
            }
        },
        {
            "type": "Feature",
            "geometry": {
                "type": "Point",
                "coordinates": [
                    68.421673,
                    57.199742
                ]
            },
            "properties": {
                "news_id": "2077190305",
                "title": "Тюменская область входит в топ-3 нацрейтинга качества жизни",
                "date": "2026-02-27T15:26:00",
                "text_preview": "Тюменская область по итогам 2025 года заняла третье место в Национальном рейтинге качества жизни, в фокусе которого в этот раз были оценка положения ветеранов специальной военной операции, многодетных...",
                "tags": [
                    "Тюменская область",
                    "Тюменская область",
                    "Александр Моор"
                ],
                "sentiment": "neutral",
                "confidence": 0.719,
                "place_name": "Тюменская область",
                "place_type": "region",
                "region": "Тюменская область",
                "rang": 1,
                "url": "https://ria.ru/20260227/tyumen-2077190305.html"
            }
        },
        {
            "type": "Feature",
            "geometry": {
                "type": "Point",
                "coordinates": [
                    69.479585,
                    56.11058
                ]
            },
            "properties": {
                "news_id": "2077192175",
                "title": "Тюменская область активно готовится к сезону пожаров и паводку",
                "date": "2026-02-27T15:32:00",
                "text_preview": "В Тюменской области началась активная подготовка к паводку и пожароопасному сезону, выполнение поставленных задач позволит минимизировать ущерб для региональной экономики, заявил губернатор Александр ...",
                "tags": [
                    "Тюменская область",
                    "Тюменская область",
                    "Александр Моор",
                    "Иртыш (река)",
                    "Ишим (река)"
                ],
                "sentiment": "neutral",
                "confidence": 0.815,
                "place_name": "Ишим",
                "place_type": "город",
                "region": "Тюменская область",
                "rang": 3,
                "url": "https://ria.ru/20260227/tyumen-2077192175.html"
            }
        },
        {
            "type": "Feature",
            "geometry": {
                "type": "Point",
                "coordinates": [
                    68.253762,
                    58.201698
                ]
            },
            "properties": {
                "news_id": "2077226540",
                "title": "Три участника тюменского \"Боевого кадрового резерва\" получили работу",
                "date": "2026-02-27T17:30:00",
                "text_preview": "Трое ветеранов боевых действий, участвующие в образовательном проекте \"Боевой кадровый резерв Тюменской области\", назначены на различные должности, сообщил губернатор Александр Моор. \"Участник региона...",
                "tags": [
                    "Тюменская область",
                    "Тобольск",
                    "Александр Моор",
                    "Александр Бортников",
                    "Тюменская область"
                ],
                "sentiment": "neutral",
                "confidence": 0.771,
                "place_name": "Тобольск",
                "place_type": "город",
                "region": "Тюменская область",
                "rang": 3,
                "url": "https://ria.ru/20260227/tyumen-2077226540.html"
            }
        },
        {
            "type": "Feature",
            "geometry": {
                "type": "Point",
                "coordinates": [
                    68.421673,
                    57.199742
                ]
            },
            "properties": {
                "news_id": "2079037866",
                "title": "Моор: отопительный сезон в Тюменской области проходит штатно",
                "date": "2026-03-06T15:16:00",
                "text_preview": "Отопительный период в Тюменской области проходит в штатном режиме, заявил губернатор Александр Моор. \"Губернатор Тюменской области Александр Моор принял участие в заседании президиума правительственно...",
                "tags": [
                    "Тюменская область",
                    "Происшествия",
                    "Тюменская область",
                    "Россия",
                    "Александр Моор",
                    "Марат Хуснуллин"
                ],
                "sentiment": "neutral",
                "confidence": 0.699,
                "place_name": "Тюменская область",
                "place_type": "region",
                "region": "Тюменская область",
                "rang": 1,
                "url": "https://ria.ru/20260306/period-2079037866.html"
            }
        },
        {
            "type": "Feature",
            "geometry": {
                "type": "Point",
                "coordinates": [
                    66.296881,
                    56.656381
                ]
            },
            "properties": {
                "news_id": "2080232847",
                "title": "Тюменские единороссы готовы помогать людям при масштабных ЧС",
                "date": "2026-03-12T14:39:00",
                "text_preview": "Активисты \"Единой России\" и представители \"Молодой Гвардии Единой России\" готовятся помогать жителям Тюменской области и специальным службам бороться с паводком и в других чрезвычайных ситуациях, заяв...",
                "tags": [
                    "Тюменская область",
                    "Александр Моор",
                    "Единая Россия",
                    "Тюменская область",
                    "Ялуторовск"
                ],
                "sentiment": "neutral",
                "confidence": 0.868,
                "place_name": "Ялуторовск",
                "place_type": "город",
                "region": "Тюменская область",
                "rang": 3,
                "url": "https://ria.ru/20260312/tyumen-2080232847.html"
            }
        },
        {
            "type": "Feature",
            "geometry": {
                "type": "Point",
                "coordinates": [
                    68.421673,
                    57.199742
                ]
            },
            "properties": {
                "news_id": "2080233153",
                "title": "Смертельных аварий стало меньше на дорогах в Тюменской области",
                "date": "2026-03-12T14:40:00",
                "text_preview": "Число погибших в дорожно-транспортных происшествиях в Тюменской области за два месяца 2026 года снизилось в сравнении с аналогичным периодом прошлого года на 26%, сообщил глава региона Александр Моор....",
                "tags": [
                    "Тюменская область",
                    "Александр Моор",
                    "Тюменская область",
                    "ДТП"
                ],
                "sentiment": "neutral",
                "confidence": 0.791,
                "place_name": "Тюменская область",
                "place_type": "region",
                "region": "Тюменская область",
                "rang": 1,
                "url": "https://ria.ru/20260312/dtp-2080233153.html"
            }
        },
        {
            "type": "Feature",
            "geometry": {
                "type": "Point",
                "coordinates": [
                    68.421673,
                    57.199742
                ]
            },
            "properties": {
                "news_id": "2080590037",
                "title": "Тюменская область развивает электронные сервисы в Mах",
                "date": "2026-03-13T22:04:00",
                "text_preview": "Электронные сервисы на платформе Mах активно развиваются в Тюменской области, с помощью чат-ботов жители региона уже могут записаться на получение услуг в ЗАГСе и на консультацию к врачу, сообщил губе...",
                "tags": [
                    "Тюменская область",
                    "Александр Моор"
                ],
                "sentiment": "neutral",
                "confidence": 0.744,
                "place_name": "Тюменская область",
                "place_type": "region",
                "region": "Тюменская область",
                "rang": 1,
                "url": "https://ria.ru/20260313/tyumen-2080590037.html"
            }
        },
        {
            "type": "Feature",
            "geometry": {
                "type": "Point",
                "coordinates": [
                    68.421673,
                    57.199742
                ]
            },
            "properties": {
                "news_id": "2080683903",
                "title": "Три образовательных кластера откроются в сузах Тюменской области",
                "date": "2026-03-14T17:04:00",
                "text_preview": "Образовательные кластеры по строительству, химии и сельскому хозяйству откроются осенью в колледжах и техникумах Тюменской области, сообщил губернатор региона Александр Моор. \"В рамках федерального пр...",
                "tags": [
                    "Тюменская область",
                    "Тюменская область",
                    "Александр Моор"
                ],
                "sentiment": "positive",
                "confidence": 0.58,
                "place_name": "Тюменская область",
                "place_type": "region",
                "region": "Тюменская область",
                "rang": 1,
                "url": "https://ria.ru/20260314/klastery-2080683903.html"
            }
        },
        {
            "type": "Feature",
            "geometry": {
                "type": "Point",
                "coordinates": [
                    69.479585,
                    56.11058
                ]
            },
            "properties": {
                "news_id": "2081378293",
                "title": "Тюменская область готовится противостоять пожарам и паводку",
                "date": "2026-03-18T11:01:00",
                "text_preview": "Тюменская область ведет активную подготовку к пожароопасному и паводковому сезонам, опираясь при этом на опыт прошлых лет, сообщил губернатор Александр Моор. \"Будем действовать, опираясь на опыт преды...",
                "tags": [
                    "Тюменская область",
                    "Тюменская область",
                    "Александр Моор",
                    "Ишим (река)"
                ],
                "sentiment": "neutral",
                "confidence": 0.787,
                "place_name": "Ишим",
                "place_type": "город",
                "region": "Тюменская область",
                "rang": 3,
                "url": "https://ria.ru/20260318/tyumen-2081378293.html"
            }
        },
        {
            "type": "Feature",
            "geometry": {
                "type": "Point",
                "coordinates": [
                    60.592108,
                    56.839824
                ]
            },
            "properties": {
                "news_id": "2081378293",
                "title": "Тюменская область готовится противостоять пожарам и паводку",
                "date": "2026-03-18T11:01:00",
                "text_preview": "Тюменская область ведет активную подготовку к пожароопасному и паводковому сезонам, опираясь при этом на опыт прошлых лет, сообщил губернатор Александр Моор. \"Будем действовать, опираясь на опыт преды...",
                "tags": [
                    "Тюменская область",
                    "Тюменская область",
                    "Александр Моор",
                    "Ишим (река)"
                ],
                "sentiment": "neutral",
                "confidence": 0.787,
                "place_name": "Екатеринбург",
                "place_type": "город",
                "region": "Свердловская область",
                "rang": 3,
                "url": "https://ria.ru/20260318/tyumen-2081378293.html"
            }
        },
        {
            "type": "Feature",
            "geometry": {
                "type": "Point",
                "coordinates": [
                    61.840407,
                    58.920063
                ]
            },
            "properties": {
                "news_id": "2081378293",
                "title": "Тюменская область готовится противостоять пожарам и паводку",
                "date": "2026-03-18T11:01:00",
                "text_preview": "Тюменская область ведет активную подготовку к пожароопасному и паводковому сезонам, опираясь при этом на опыт прошлых лет, сообщил губернатор Александр Моор. \"Будем действовать, опираясь на опыт преды...",
                "tags": [
                    "Тюменская область",
                    "Тюменская область",
                    "Александр Моор",
                    "Ишим (река)"
                ],
                "sentiment": "neutral",
                "confidence": 0.787,
                "place_name": "Тюменская",
                "place_type": "деревня",
                "region": "Свердловская область",
                "rang": 3,
                "url": "https://ria.ru/20260318/tyumen-2081378293.html"
            }
        },
        {
            "type": "Feature",
            "geometry": {
                "type": "Point",
                "coordinates": [
                    70.340885,
                    55.788106
                ]
            },
            "properties": {
                "news_id": "2081378293",
                "title": "Тюменская область готовится противостоять пожарам и паводку",
                "date": "2026-03-18T11:01:00",
                "text_preview": "Тюменская область ведет активную подготовку к пожароопасному и паводковому сезонам, опираясь при этом на опыт прошлых лет, сообщил губернатор Александр Моор. \"Будем действовать, опираясь на опыт преды...",
                "tags": [
                    "Тюменская область",
                    "Тюменская область",
                    "Александр Моор",
                    "Ишим (река)"
                ],
                "sentiment": "neutral",
                "confidence": 0.787,
                "place_name": "Свердловская",
                "place_type": "деревня",
                "region": "Тюменская область",
                "rang": 3,
                "url": "https://ria.ru/20260318/tyumen-2081378293.html"
            }
        },
        {
            "type": "Feature",
            "geometry": {
                "type": "Point",
                "coordinates": [
                    68.421673,
                    57.199742
                ]
            },
            "properties": {
                "news_id": "2081937667",
                "title": "Моор: День тружеников тыла поможет сохранить память об их подвиге",
                "date": "2026-03-20T13:53:00",
                "text_preview": "День тружеников тыла будет способствовать сохранению памяти об их подвиге, законопроект об установлении в России новой памятной даты направлен в Госдуму, сообщил губернатор Тюменской области Александр...",
                "tags": [
                    "Тюменская область",
                    "Тюменская область",
                    "Александр Моор",
                    "Госдума РФ"
                ],
                "sentiment": "neutral",
                "confidence": 0.714,
                "place_name": "Тюменская область",
                "place_type": "region",
                "region": "Тюменская область",
                "rang": 1,
                "url": "https://ria.ru/20260320/gubernator-2081937667.html"
            }
        },
        {
            "type": "Feature",
            "geometry": {
                "type": "Point",
                "coordinates": [
                    68.253762,
                    58.201698
                ]
            },
            "properties": {
                "news_id": "2082583240",
                "title": "Кравцов назвал Тобольск примером по системе подготовки кадров",
                "date": "2026-03-24T11:25:00",
                "text_preview": "Тобольск является отличным примером того, как должна строиться современная система подготовки кадров, заявил министр просвещения РФ Сергей Кравцов по итогам поездки в Тюменскую область. В понедельник ...",
                "tags": [
                    "Тюменская область",
                    "Тобольск",
                    "Тюменская область",
                    "Россия",
                    "Сергей Кравцов",
                    "Александр Моор"
                ],
                "sentiment": "positive",
                "confidence": 0.652,
                "place_name": "Тобольск",
                "place_type": "город",
                "region": "Тюменская область",
                "rang": 3,
                "url": "https://ria.ru/20260324/tobolsk-2082583240.html"
            }
        },
        {
            "type": "Feature",
            "geometry": {
                "type": "Point",
                "coordinates": [
                    68.421673,
                    57.199742
                ]
            },
            "properties": {
                "news_id": "2083022090",
                "title": "В Тюменской области за три года отремонтируют более 1,5 тысячи домов",
                "date": "2026-03-26T12:26:00",
                "text_preview": "Более 1,5 тысячи многоквартирных домов планируют отремонтировать в Тюменской области за три года, сообщает информационный центр правительства региона. \"Более 1500 домов планируют отремонтировать в бли...",
                "tags": [
                    "Тюменская область",
                    "Жилье",
                    "Тюменская область"
                ],
                "sentiment": "neutral",
                "confidence": 0.626,
                "place_name": "Тюменская область",
                "place_type": "region",
                "region": "Тюменская область",
                "rang": 1,
                "url": "https://ria.ru/20260326/oblast-2083022090.html"
            }
        },
        {
            "type": "Feature",
            "geometry": {
                "type": "Point",
                "coordinates": [
                    65.51564,
                    57.154949
                ]
            },
            "properties": {
                "news_id": "2083285171",
                "title": "Тюменская область представила во Вьетнаме межуниверситетский кампус",
                "date": "2026-03-27T13:44:00",
                "text_preview": "Делегация Тюменской области представила во Вьетнаме межуниверситетский кампус и обсудила развитие сотрудничества с местными университетами, сообщает информационный центр правительства региона. \"Делега...",
                "tags": [
                    "Тюменская область",
                    "Тюменская область",
                    "Вьетнам",
                    "Ханой",
                    "Александр Моор"
                ],
                "sentiment": "neutral",
                "confidence": 0.631,
                "place_name": "Тюмень",
                "place_type": "город",
                "region": "Тюменская область",
                "rang": 3,
                "url": "https://ria.ru/20260327/vetnam-2083285171.html"
            }
        },
        {
            "type": "Feature",
            "geometry": {
                "type": "Point",
                "coordinates": [
                    65.51564,
                    57.154949
                ]
            },
            "properties": {
                "news_id": "2083314005",
                "title": "Эксперты Генштаба ВС РФ оценили работу Тюмени с призывниками",
                "date": "2026-03-27T15:11:00",
                "text_preview": "Конкурсная комиссия Всероссийского смотра-конкурса на лучшую подготовку граждан к военной службе во главе с заместителем начальника Главного организационно-мобилизационного управления Генштаба Вооруже...",
                "tags": [
                    "Тюменская область",
                    "Тюменская область",
                    "ДОСААФ",
                    "Тюмень"
                ],
                "sentiment": "neutral",
                "confidence": 0.724,
                "place_name": "Тюмень",
                "place_type": "город",
                "region": "Тюменская область",
                "rang": 3,
                "url": "https://ria.ru/20260327/tyumen-2083314005.html"
            }
        },
        {
            "type": "Feature",
            "geometry": {
                "type": "Point",
                "coordinates": [
                    68.253762,
                    58.201698
                ]
            },
            "properties": {
                "news_id": "2083314005",
                "title": "Эксперты Генштаба ВС РФ оценили работу Тюмени с призывниками",
                "date": "2026-03-27T15:11:00",
                "text_preview": "Конкурсная комиссия Всероссийского смотра-конкурса на лучшую подготовку граждан к военной службе во главе с заместителем начальника Главного организационно-мобилизационного управления Генштаба Вооруже...",
                "tags": [
                    "Тюменская область",
                    "Тюменская область",
                    "ДОСААФ",
                    "Тюмень"
                ],
                "sentiment": "neutral",
                "confidence": 0.724,
                "place_name": "Тобольск",
                "place_type": "город",
                "region": "Тюменская область",
                "rang": 3,
                "url": "https://ria.ru/20260327/tyumen-2083314005.html"
            }
        },
        {
            "type": "Feature",
            "geometry": {
                "type": "Point",
                "coordinates": [
                    68.421673,
                    57.199742
                ]
            },
            "properties": {
                "news_id": "2084029315",
                "title": "Тюменская область развивает деловые связи с Вьетнамом",
                "date": "2026-03-31T15:23:00",
                "text_preview": "Делегация Тюменской области во время деловой поездки во Вьетнам провела переговоры о сотрудничестве с руководством города Хошимина, сообщает информационный центр правительства региона. \"В Хошимине сос...",
                "tags": [
                    "Тюменская область",
                    "Тюменская область",
                    "Хошимин",
                    "Вьетнам",
                    "Торговля",
                    "Кадры"
                ],
                "sentiment": "positive",
                "confidence": 0.699,
                "place_name": "Тюменская область",
                "place_type": "region",
                "region": "Тюменская область",
                "rang": 1,
                "url": "https://ria.ru/20260331/svyaz-2084029315.html"
            }
        },
        {
            "type": "Feature",
            "geometry": {
                "type": "Point",
                "coordinates": [
                    68.421673,
                    57.199742
                ]
            },
            "properties": {
                "news_id": "2084073677",
                "title": "Тюменский опыт жилищного надзора применят во всех регионах РФ",
                "date": "2026-03-31T17:47:00",
                "text_preview": "Региональный государственный жилищный надзор действует в Тюменской области в отношении всего жилого фонда, независимо от формы собственности, с 1 сентября такой механизм будет действовать по всей стра...",
                "tags": [
                    "Тюменская область",
                    "Жилье",
                    "Тюменская область",
                    "Владимир Якушев",
                    "Совет Федерации РФ"
                ],
                "sentiment": "neutral",
                "confidence": 0.855,
                "place_name": "Тюменская область",
                "place_type": "region",
                "region": "Тюменская область",
                "rang": 1,
                "url": "https://ria.ru/20260331/nadzor-2084073677.html"
            }
        },
        {
            "type": "Feature",
            "geometry": {
                "type": "Point",
                "coordinates": [
                    68.421673,
                    57.199742
                ]
            },
            "properties": {
                "news_id": "2084993080",
                "title": "Моор: пожароопасный сезон начинается в Тюменской области",
                "date": "2026-04-03T13:19:00",
                "text_preview": "В Тюменской области с 6 апреля для обеспечения безопасности и усиления охраны территорий от природных пожаров устанавливается пожароопасный сезон, сообщается на сайте регионального правительства. \"Для...",
                "tags": [
                    "Тюменская область",
                    "Тюменская область",
                    "Леса",
                    "пожары"
                ],
                "sentiment": "neutral",
                "confidence": 0.672,
                "place_name": "Тюменская область",
                "place_type": "region",
                "region": "Тюменская область",
                "rang": 1,
                "url": "https://ria.ru/20260403/sezon-2084993080.html"
            }
        },
        {
            "type": "Feature",
            "geometry": {
                "type": "Point",
                "coordinates": [
                    65.51564,
                    57.154949
                ]
            },
            "properties": {
                "news_id": "2085483994",
                "title": "Семь новых школ откроются в Тюменской области в 2026 году",
                "date": "2026-04-06T16:31:00",
                "text_preview": "Семь новых школ, в том числе пять крупных, откроются в Тюменской области до конца текущего года, сообщил глава региона Александр Моор. \"В Тюменской области возводятся 12 школ и два детских сада. У все...",
                "tags": [
                    "Тюменская область",
                    "Александр Моор",
                    "Тюмень",
                    "Школа"
                ],
                "sentiment": "neutral",
                "confidence": 0.643,
                "place_name": "Тюмень",
                "place_type": "город",
                "region": "Тюменская область",
                "rang": 3,
                "url": "https://ria.ru/20260406/shkoly-2085483994.html"
            }
        },
        {
            "type": "Feature",
            "geometry": {
                "type": "Point",
                "coordinates": [
                    68.421673,
                    57.199742
                ]
            },
            "properties": {
                "news_id": "2085886713",
                "title": "Тюменские участники СВО могут пройти курс по госуправлению",
                "date": "2026-04-08T13:51:00",
                "text_preview": "Онлайн-курс повышения квалификации \"Основы государственного и муниципального управления\" организуют в Тюменской области для ветеранов и участников специальной военной операции, сообщил глава региона А...",
                "tags": [
                    "Тюменская область",
                    "Александр Моор",
                    "СВО"
                ],
                "sentiment": "neutral",
                "confidence": 0.789,
                "place_name": "Тюменская область",
                "place_type": "region",
                "region": "Тюменская область",
                "rang": 1,
                "url": "https://ria.ru/20260408/kurs-2085886713.html"
            }
        },
        {
            "type": "Feature",
            "geometry": {
                "type": "Point",
                "coordinates": [
                    69.479585,
                    56.11058
                ]
            },
            "properties": {
                "news_id": "2085939674",
                "title": "Моор: Тюменская область готовится противостоять весеннему паводку",
                "date": "2026-04-08T17:21:00",
                "text_preview": "Тюменская область активно готовится к весеннему паводку на реках Ишим и Тура, пик подъема воды в которых ожидается в начале мая, сообщил губернатор Александр Моор. \"Активно готовимся к весеннему павод...",
                "tags": [
                    "Тюменская область",
                    "Ишим (река)",
                    "Тюменская область",
                    "Тюмень",
                    "Александр Моор"
                ],
                "sentiment": "neutral",
                "confidence": 0.783,
                "place_name": "Ишим",
                "place_type": "город",
                "region": "Тюменская область",
                "rang": 3,
                "url": "https://ria.ru/20260408/oblast-2085939674.html"
            }
        },
        {
            "type": "Feature",
            "geometry": {
                "type": "Point",
                "coordinates": [
                    65.51564,
                    57.154949
                ]
            },
            "properties": {
                "news_id": "2085939674",
                "title": "Моор: Тюменская область готовится противостоять весеннему паводку",
                "date": "2026-04-08T17:21:00",
                "text_preview": "Тюменская область активно готовится к весеннему паводку на реках Ишим и Тура, пик подъема воды в которых ожидается в начале мая, сообщил губернатор Александр Моор. \"Активно готовимся к весеннему павод...",
                "tags": [
                    "Тюменская область",
                    "Ишим (река)",
                    "Тюменская область",
                    "Тюмень",
                    "Александр Моор"
                ],
                "sentiment": "neutral",
                "confidence": 0.783,
                "place_name": "Тюмень",
                "place_type": "город",
                "region": "Тюменская область",
                "rang": 3,
                "url": "https://ria.ru/20260408/oblast-2085939674.html"
            }
        },
        {
            "type": "Feature",
            "geometry": {
                "type": "Point",
                "coordinates": [
                    68.421673,
                    57.199742
                ]
            },
            "properties": {
                "news_id": "2086227508",
                "title": "Курсантское общежитие открыли в тюменском военном училище",
                "date": "2026-04-09T21:24:00",
                "text_preview": "В Тюменском высшем военно-инженерном командном училище открыли курсантское общежитие, построенное по соглашению между Тюменской областью и Минобороны России о реконструкции вуза на условиях софинансир...",
                "tags": [
                    "Тюменская область",
                    "Россия",
                    "Тюменская область",
                    "Александр Моор"
                ],
                "sentiment": "positive",
                "confidence": 0.688,
                "place_name": "Тюменская область",
                "place_type": "region",
                "region": "Тюменская область",
                "rang": 1,
                "url": "https://ria.ru/20260409/obschezhitie-2086227508.html"
            }
        },
        {
            "type": "Feature",
            "geometry": {
                "type": "Point",
                "coordinates": [
                    65.51564,
                    57.154949
                ]
            },
            "properties": {
                "news_id": "2086398797",
                "title": "Областной поисковый центр открыли в Тюмени",
                "date": "2026-04-10T17:41:00",
                "text_preview": "Тюменский областной поисковый центр, который объединяет поисковые отряды региона, обрел собственное помещение в Тюмени, сообщил губернатор Александр Моор. \"У поисковиков Тюменской области появился дом...",
                "tags": [
                    "Тюменская область",
                    "Тюмень",
                    "Александр Моор"
                ],
                "sentiment": "neutral",
                "confidence": 0.662,
                "place_name": "Тюмень",
                "place_type": "город",
                "region": "Тюменская область",
                "rang": 3,
                "url": "https://ria.ru/20260410/tyumen-2086398797.html"
            }
        },
        {
            "type": "Feature",
            "geometry": {
                "type": "Point",
                "coordinates": [
                    68.421673,
                    57.199742
                ]
            },
            "properties": {
                "news_id": "2086404418",
                "title": "Новая школа начала работу в селе Мальково под Тюменью",
                "date": "2026-04-10T18:02:00",
                "text_preview": "Школа более чем на тысячу мест открылась в селе Мальково Тюменской области, сообщил губернатор Александр Моор. \"Более тысячи ребят пойдут в новую школу в селе Мальково. По уже сложившейся традиции отк...",
                "tags": [
                    "Тюменская область",
                    "Александр Моор",
                    "Школа"
                ],
                "sentiment": "positive",
                "confidence": 0.667,
                "place_name": "Тюменская область",
                "place_type": "region",
                "region": "Тюменская область",
                "rang": 1,
                "url": "https://ria.ru/20260410/shkola-2086404418.html"
            }
        },
        {
            "type": "Feature",
            "geometry": {
                "type": "Point",
                "coordinates": [
                    69.650407,
                    57.791652
                ]
            },
            "properties": {
                "news_id": "2087166608",
                "title": "Тюменская область модернизирует пункт на границе с Казахстаном",
                "date": "2026-04-15T12:30:00",
                "text_preview": "Автомобильно-пропускной пункт \"Казанское – Кызыл Жар\", который расположен в Казанском округе Тюменской области, будет отремонтирован к 2027 году, сообщил губернатор Александр Моор. Вопрос комплексного...",
                "tags": [
                    "Тюменская область",
                    "Тюменская область",
                    "Казахстан",
                    "Александр Моор"
                ],
                "sentiment": "neutral",
                "confidence": 0.579,
                "place_name": "Казанское",
                "place_type": "село",
                "region": "Тюменская область",
                "rang": 3,
                "url": "https://ria.ru/20260415/remont-2087166608.html"
            }
        },
        {
            "type": "Feature",
            "geometry": {
                "type": "Point",
                "coordinates": [
                    68.421673,
                    57.199742
                ]
            },
            "properties": {
                "news_id": "2087520947",
                "title": "Тюменская область предлагает ускорить переобучение ветеранов СВО",
                "date": "2026-04-17T11:59:00",
                "text_preview": "Тюменская область направила в Госдуму законопроект, по которому участники специальной военной операции смогут обучаться в ссузах по ускоренной программе с учетом опыта, полученного при прохождении вое...",
                "tags": [
                    "Александр Моор",
                    "Тюменская областная Дума",
                    "Госдума РФ"
                ],
                "sentiment": "neutral",
                "confidence": 0.804,
                "place_name": "Тюменская область",
                "place_type": "region",
                "region": "Тюменская область",
                "rang": 1,
                "url": "https://ria.ru/20260417/tyumen-2087520947.html"
            }
        },
        {
            "type": "Feature",
            "geometry": {
                "type": "Point",
                "coordinates": [
                    65.51564,
                    57.154949
                ]
            },
            "properties": {
                "news_id": "2088004707",
                "title": "Моор: Тюменская область достойно отметит День Победы",
                "date": "2026-04-20T18:25:00",
                "text_preview": "Тюменская область достойно отметит 81-годовщину Победы в Великой Отечественной войне, все мероприятия должны пройти на высоком уровне, заявил глава региона Александр Моор. \"Все мероприятия, посвященны...",
                "tags": [
                    "Александр Моор"
                ],
                "sentiment": "positive",
                "confidence": 0.763,
                "place_name": "Тюмень",
                "place_type": "город",
                "region": "Тюменская область",
                "rang": 3,
                "url": "https://ria.ru/20260420/oblast-2088004707.html"
            }
        },
        {
            "type": "Feature",
            "geometry": {
                "type": "Point",
                "coordinates": [
                    65.51564,
                    57.154949
                ]
            },
            "properties": {
                "news_id": "2088214405",
                "title": "Участники тюменского \"Боевого кадрового резерва\" обучатся госслужбе",
                "date": "2026-04-21T19:13:00",
                "text_preview": "Участники \"Боевого кадрового резерва\" Тюменской области изучат устройство государственной и муниципальной службы, обучение будет проходить в Тюмени и Тобольске при участии представителей исполнительно...",
                "tags": [
                    "Александр Моор"
                ],
                "sentiment": "neutral",
                "confidence": 0.757,
                "place_name": "Тюмень",
                "place_type": "город",
                "region": "Тюменская область",
                "rang": 3,
                "url": "https://ria.ru/20260421/uchastniki-2088214405.html"
            }
        },
        {
            "type": "Feature",
            "geometry": {
                "type": "Point",
                "coordinates": [
                    68.253762,
                    58.201698
                ]
            },
            "properties": {
                "news_id": "2088214405",
                "title": "Участники тюменского \"Боевого кадрового резерва\" обучатся госслужбе",
                "date": "2026-04-21T19:13:00",
                "text_preview": "Участники \"Боевого кадрового резерва\" Тюменской области изучат устройство государственной и муниципальной службы, обучение будет проходить в Тюмени и Тобольске при участии представителей исполнительно...",
                "tags": [
                    "Александр Моор"
                ],
                "sentiment": "neutral",
                "confidence": 0.757,
                "place_name": "Тобольск",
                "place_type": "город",
                "region": "Тюменская область",
                "rang": 3,
                "url": "https://ria.ru/20260421/uchastniki-2088214405.html"
            }
        },
        {
            "type": "Feature",
            "geometry": {
                "type": "Point",
                "coordinates": [
                    68.421673,
                    57.199742
                ]
            },
            "properties": {
                "news_id": "2089213218",
                "title": "Аграрии Тюменской области начали посевную кампанию",
                "date": "2026-04-27T17:55:00",
                "text_preview": "Посевная кампания стартовала в Тюменской области, сообщил глава региона Александр Моор. \"В Тюменской области началась посевная кампания. Первым стартовал Ялуторовский муниципальный округ. Аграрии хозя...",
                "tags": [
                    "Александр Моор"
                ],
                "sentiment": "neutral",
                "confidence": 0.724,
                "place_name": "Тюменская область",
                "place_type": "region",
                "region": "Тюменская область",
                "rang": 1,
                "url": "https://ria.ru/20260427/kampanija-2089213218.html"
            }
        },
        {
            "type": "Feature",
            "geometry": {
                "type": "Point",
                "coordinates": [
                    68.421673,
                    57.199742
                ]
            },
            "properties": {
                "news_id": "2089369162",
                "title": "Особый противопожарный режим введен в Тюменской области",
                "date": "2026-04-28T14:10:00",
                "text_preview": "Особый противопожарный режим установлен в Тюменской области с 28 апреля для защиты лесов, населенных пунктов и объектов экономики от возгораний, сообщается на сайте правительства региона. \"Особый прот...",
                "tags": [
                    "Александр Моор",
                    "МЧС России (Министерство РФ по делам гражданской обороны, чрезвычайным ситуациям и ликвидации последствий стихийных бедствий)"
                ],
                "sentiment": "neutral",
                "confidence": 0.731,
                "place_name": "Тюменская область",
                "place_type": "region",
                "region": "Тюменская область",
                "rang": 1,
                "url": "https://ria.ru/20260428/rezhim-2089369162.html"
            }
        },
        {
            "type": "Feature",
            "geometry": {
                "type": "Point",
                "coordinates": [
                    65.51564,
                    57.154949
                ]
            },
            "properties": {
                "news_id": "2090887906",
                "title": "Тюменская область обновит за сезон более 100 км дорог",
                "date": "2026-05-06T17:50:00",
                "text_preview": "Более 100 километров дорог в муниципальных образованиях Тюменской области будет отремонтировано в текущем сезоне, сообщил губернатор Александр Моор. \"По обращению земляков начали ремонт дороги в Тюмен...",
                "tags": [
                    "Россия",
                    "Александр Моор",
                    "Дороги"
                ],
                "sentiment": "neutral",
                "confidence": 0.872,
                "place_name": "Тюмень",
                "place_type": "город",
                "region": "Тюменская область",
                "rang": 3,
                "url": "https://ria.ru/20260506/kilometry-2090887906.html"
            }
        },
        {
            "type": "Feature",
            "geometry": {
                "type": "Point",
                "coordinates": [
                    68.421673,
                    57.199742
                ]
            },
            "properties": {
                "news_id": "2090889034",
                "title": "Около 270 тюменцев переедут из аварийных домов в новые квартиры",
                "date": "2026-05-06T17:54:00",
                "text_preview": "Более 4,8 тысячи квадратных метров аварийного жилья расселят в Тюменской области в течение года, в новое жилье переедут 269 граждан, сообщает информационный центр правительства региона. \"В Тюменской о...",
                "tags": [
                    "Жилье"
                ],
                "sentiment": "positive",
                "confidence": 0.552,
                "place_name": "Тюменская область",
                "place_type": "region",
                "region": "Тюменская область",
                "rang": 1,
                "url": "https://ria.ru/20260506/zhile-2090889034.html"
            }
        },
        {
            "type": "Feature",
            "geometry": {
                "type": "Point",
                "coordinates": [
                    65.51564,
                    57.154949
                ]
            },
            "properties": {
                "news_id": "2092057983",
                "title": "Тюменцы голосуют за проекты благоустройства скверов и парков",
                "date": "2026-05-12T17:30:00",
                "text_preview": "Жители Тюменской области выбирают дизайн-проекты благоустройства общественных пространств, голоса за понравившиеся проекты отдали уже более 50 тысяч человек, сообщил глава региона Александр Моор. \"Бол...",
                "tags": [
                    "Александр Моор"
                ],
                "sentiment": "neutral",
                "confidence": 0.739,
                "place_name": "Тюмень",
                "place_type": "город",
                "region": "Тюменская область",
                "rang": 3,
                "url": "https://ria.ru/20260512/tyumen-2092057983.html"
            }
        },
        {
            "type": "Feature",
            "geometry": {
                "type": "Point",
                "coordinates": [
                    68.253762,
                    58.201698
                ]
            },
            "properties": {
                "news_id": "2092057983",
                "title": "Тюменцы голосуют за проекты благоустройства скверов и парков",
                "date": "2026-05-12T17:30:00",
                "text_preview": "Жители Тюменской области выбирают дизайн-проекты благоустройства общественных пространств, голоса за понравившиеся проекты отдали уже более 50 тысяч человек, сообщил глава региона Александр Моор. \"Бол...",
                "tags": [
                    "Александр Моор"
                ],
                "sentiment": "neutral",
                "confidence": 0.739,
                "place_name": "Тобольск",
                "place_type": "город",
                "region": "Тюменская область",
                "rang": 3,
                "url": "https://ria.ru/20260512/tyumen-2092057983.html"
            }
        }
    ]
}