{
    "type": "FeatureCollection",
    "features": [
        {
            "type": "Feature",
            "geometry": {
                "type": "Point",
                "coordinates": [
                    66.608443,
                    66.549285
                ]
            },
            "properties": {
                "news_id": "2081707728",
                "title": "Строительство нового терминала аэропорта стартует в этом году на Ямале",
                "date": "2026-03-19T15:07:00",
                "text_preview": "Строительство нового терминала аэропорта стартует в этом году в Салехарде на Ямале, в рамках двухэтапной модернизации к 2028 году терминал увеличит свою площадь до 14 тысяч квадратных метров и пропуск...",
                "tags": [
                    "Ямало-Ненецкий автономный округ",
                    "Дмитрий Артюхов",
                    "Салехард",
                    "Ямал"
                ],
                "sentiment": "positive",
                "confidence": 0.595,
                "place_name": "Салехард",
                "place_type": "город",
                "region": "Ямало-Ненецкий Автономный округ",
                "rang": 3,
                "url": "https://ria.ru/20260319/aeroport-2081707728.html"
            }
        },
        {
            "type": "Feature",
            "geometry": {
                "type": "Point",
                "coordinates": [
                    66.389811,
                    66.659522
                ]
            },
            "properties": {
                "news_id": "2081707728",
                "title": "Строительство нового терминала аэропорта стартует в этом году на Ямале",
                "date": "2026-03-19T15:07:00",
                "text_preview": "Строительство нового терминала аэропорта стартует в этом году в Салехарде на Ямале, в рамках двухэтапной модернизации к 2028 году терминал увеличит свою площадь до 14 тысяч квадратных метров и пропуск...",
                "tags": [
                    "Ямало-Ненецкий автономный округ",
                    "Дмитрий Артюхов",
                    "Салехард",
                    "Ямал"
                ],
                "sentiment": "positive",
                "confidence": 0.595,
                "place_name": "Лабытнанги",
                "place_type": "город",
                "region": "Ямало-Ненецкий Автономный округ",
                "rang": 3,
                "url": "https://ria.ru/20260319/aeroport-2081707728.html"
            }
        },
        {
            "type": "Feature",
            "geometry": {
                "type": "Point",
                "coordinates": [
                    76.680974,
                    66.083963
                ]
            },
            "properties": {
                "news_id": "2082894930",
                "title": "На Ямале обсудили реализацию концепции устойчивого развития народов Севера",
                "date": "2026-03-25T18:18:00",
                "text_preview": "Итоги реализации концепции устойчивого развития коренных малочисленных народов Севера за 2017-2025 годы обсудили на заседании правительства Ямала под председательством губернатора Дмитрия Артюхова, за...",
                "tags": [
                    "Ямало-Ненецкий автономный округ",
                    "Ямал",
                    "Россия",
                    "Дмитрий Артюхов"
                ],
                "sentiment": "neutral",
                "confidence": 0.646,
                "place_name": "Новый Уренгой",
                "place_type": "город",
                "region": "Ямало-Ненецкий Автономный округ",
                "rang": 3,
                "url": "https://ria.ru/20260325/jamal-2082894930.html"
            }
        },
        {
            "type": "Feature",
            "geometry": {
                "type": "Point",
                "coordinates": [
                    72.896389,
                    67.691944
                ]
            },
            "properties": {
                "news_id": "2083054466",
                "title": "На Ямале расселение аварийного жилфонда завершили в селе Новый Порт",
                "date": "2026-03-26T14:44:00",
                "text_preview": "Расселение аварийного жилфонда завершили в селе Новый Порт на Ямале, ключи от новых квартир получили 38 семей, сообщил губернатор региона Дмитрий Артюхов. \"Ещё один населённый пункт, где больше нет ав...",
                "tags": [
                    "Ямало-Ненецкий автономный округ",
                    "Жилье",
                    "Ямал",
                    "Ямальский район",
                    "Дмитрий Артюхов"
                ],
                "sentiment": "neutral",
                "confidence": 0.618,
                "place_name": "Новый Порт",
                "place_type": "село",
                "region": "Ямало-Ненецкий Автономный округ",
                "rang": 3,
                "url": "https://ria.ru/20260326/jamal-2083054466.html"
            }
        },
        {
            "type": "Feature",
            "geometry": {
                "type": "Point",
                "coordinates": [
                    70.086756,
                    66.744137
                ]
            },
            "properties": {
                "news_id": "2083054466",
                "title": "На Ямале расселение аварийного жилфонда завершили в селе Новый Порт",
                "date": "2026-03-26T14:44:00",
                "text_preview": "Расселение аварийного жилфонда завершили в селе Новый Порт на Ямале, ключи от новых квартир получили 38 семей, сообщил губернатор региона Дмитрий Артюхов. \"Ещё один населённый пункт, где больше нет ав...",
                "tags": [
                    "Ямало-Ненецкий автономный округ",
                    "Жилье",
                    "Ямал",
                    "Ямальский район",
                    "Дмитрий Артюхов"
                ],
                "sentiment": "neutral",
                "confidence": 0.618,
                "place_name": "Панаевск",
                "place_type": "село",
                "region": "Ямало-Ненецкий Автономный округ",
                "rang": 3,
                "url": "https://ria.ru/20260326/jamal-2083054466.html"
            }
        },
        {
            "type": "Feature",
            "geometry": {
                "type": "Point",
                "coordinates": [
                    73.590347,
                    68.472159
                ]
            },
            "properties": {
                "news_id": "2083054466",
                "title": "На Ямале расселение аварийного жилфонда завершили в селе Новый Порт",
                "date": "2026-03-26T14:44:00",
                "text_preview": "Расселение аварийного жилфонда завершили в селе Новый Порт на Ямале, ключи от новых квартир получили 38 семей, сообщил губернатор региона Дмитрий Артюхов. \"Ещё один населённый пункт, где больше нет ав...",
                "tags": [
                    "Ямало-Ненецкий автономный округ",
                    "Жилье",
                    "Ямал",
                    "Ямальский район",
                    "Дмитрий Артюхов"
                ],
                "sentiment": "neutral",
                "confidence": 0.618,
                "place_name": "Мыс Каменный",
                "place_type": "поселок",
                "region": "Ямало-Ненецкий Автономный округ",
                "rang": 3,
                "url": "https://ria.ru/20260326/jamal-2083054466.html"
            }
        },
        {
            "type": "Feature",
            "geometry": {
                "type": "Point",
                "coordinates": [
                    76.680974,
                    66.083963
                ]
            },
            "properties": {
                "news_id": "2083054466",
                "title": "На Ямале расселение аварийного жилфонда завершили в селе Новый Порт",
                "date": "2026-03-26T14:44:00",
                "text_preview": "Расселение аварийного жилфонда завершили в селе Новый Порт на Ямале, ключи от новых квартир получили 38 семей, сообщил губернатор региона Дмитрий Артюхов. \"Ещё один населённый пункт, где больше нет ав...",
                "tags": [
                    "Ямало-Ненецкий автономный округ",
                    "Жилье",
                    "Ямал",
                    "Ямальский район",
                    "Дмитрий Артюхов"
                ],
                "sentiment": "neutral",
                "confidence": 0.618,
                "place_name": "Новый Уренгой",
                "place_type": "город",
                "region": "Ямало-Ненецкий Автономный округ",
                "rang": 3,
                "url": "https://ria.ru/20260326/jamal-2083054466.html"
            }
        },
        {
            "type": "Feature",
            "geometry": {
                "type": "Point",
                "coordinates": [
                    76.5,
                    64.433333
                ]
            },
            "properties": {
                "news_id": "2083054466",
                "title": "На Ямале расселение аварийного жилфонда завершили в селе Новый Порт",
                "date": "2026-03-26T14:44:00",
                "text_preview": "Расселение аварийного жилфонда завершили в селе Новый Порт на Ямале, ключи от новых квартир получили 38 семей, сообщил губернатор региона Дмитрий Артюхов. \"Ещё один населённый пункт, где больше нет ав...",
                "tags": [
                    "Ямало-Ненецкий автономный округ",
                    "Жилье",
                    "Ямал",
                    "Ямальский район",
                    "Дмитрий Артюхов"
                ],
                "sentiment": "neutral",
                "confidence": 0.618,
                "place_name": "Губкинский",
                "place_type": "город",
                "region": "Ямало-Ненецкий Автономный округ",
                "rang": 3,
                "url": "https://ria.ru/20260326/jamal-2083054466.html"
            }
        },
        {
            "type": "Feature",
            "geometry": {
                "type": "Point",
                "coordinates": [
                    64.698611,
                    65.398056
                ]
            },
            "properties": {
                "news_id": "2083054466",
                "title": "На Ямале расселение аварийного жилфонда завершили в селе Новый Порт",
                "date": "2026-03-26T14:44:00",
                "text_preview": "Расселение аварийного жилфонда завершили в селе Новый Порт на Ямале, ключи от новых квартир получили 38 семей, сообщил губернатор региона Дмитрий Артюхов. \"Ещё один населённый пункт, где больше нет ав...",
                "tags": [
                    "Ямало-Ненецкий автономный округ",
                    "Жилье",
                    "Ямал",
                    "Ямальский район",
                    "Дмитрий Артюхов"
                ],
                "sentiment": "neutral",
                "confidence": 0.618,
                "place_name": "Мужи",
                "place_type": "село",
                "region": "Ямало-Ненецкий Автономный округ",
                "rang": 3,
                "url": "https://ria.ru/20260326/jamal-2083054466.html"
            }
        },
        {
            "type": "Feature",
            "geometry": {
                "type": "Point",
                "coordinates": [
                    78.714401,
                    67.4742
                ]
            },
            "properties": {
                "news_id": "2083054466",
                "title": "На Ямале расселение аварийного жилфонда завершили в селе Новый Порт",
                "date": "2026-03-26T14:44:00",
                "text_preview": "Расселение аварийного жилфонда завершили в селе Новый Порт на Ямале, ключи от новых квартир получили 38 семей, сообщил губернатор региона Дмитрий Артюхов. \"Ещё один населённый пункт, где больше нет ав...",
                "tags": [
                    "Ямало-Ненецкий автономный округ",
                    "Жилье",
                    "Ямал",
                    "Ямальский район",
                    "Дмитрий Артюхов"
                ],
                "sentiment": "neutral",
                "confidence": 0.618,
                "place_name": "Тазовский",
                "place_type": "поселок",
                "region": "Ямало-Ненецкий Автономный округ",
                "rang": 3,
                "url": "https://ria.ru/20260326/jamal-2083054466.html"
            }
        },
        {
            "type": "Feature",
            "geometry": {
                "type": "Point",
                "coordinates": [
                    75.441721,
                    63.197344
                ]
            },
            "properties": {
                "news_id": "2083054466",
                "title": "На Ямале расселение аварийного жилфонда завершили в селе Новый Порт",
                "date": "2026-03-26T14:44:00",
                "text_preview": "Расселение аварийного жилфонда завершили в селе Новый Порт на Ямале, ключи от новых квартир получили 38 семей, сообщил губернатор региона Дмитрий Артюхов. \"Ещё один населённый пункт, где больше нет ав...",
                "tags": [
                    "Ямало-Ненецкий автономный округ",
                    "Жилье",
                    "Ямал",
                    "Ямальский район",
                    "Дмитрий Артюхов"
                ],
                "sentiment": "neutral",
                "confidence": 0.618,
                "place_name": "Ноябрьск",
                "place_type": "город",
                "region": "Ямало-Ненецкий Автономный округ",
                "rang": 3,
                "url": "https://ria.ru/20260326/jamal-2083054466.html"
            }
        },
        {
            "type": "Feature",
            "geometry": {
                "type": "Point",
                "coordinates": [
                    65.51564,
                    57.154949
                ]
            },
            "properties": {
                "news_id": "2084282533",
                "title": "Более 140 тысяч перелетов совершили дети из многодетных семей Ямала",
                "date": "2026-04-01T15:02:00",
                "text_preview": "Свыше 140 тысяч перелетов совершили дети из многодетных семей Ямала с момента запуска льготной программы, которая начала действовать 7 лет назад, сообщает пресс-служба правительства региона. \"Поддержк...",
                "tags": [
                    "Ямало-Ненецкий автономный округ",
                    "Ямал",
                    "Сочи",
                    "Москва",
                    "Дмитрий Артюхов",
                    "Дети",
                    "Льготы",
                    "Многодетные семьи"
                ],
                "sentiment": "neutral",
                "confidence": 0.782,
                "place_name": "Тюмень",
                "place_type": "город",
                "region": "Тюменская область",
                "rang": 3,
                "url": "https://ria.ru/20260401/deti-2084282533.html"
            }
        },
        {
            "type": "Feature",
            "geometry": {
                "type": "Point",
                "coordinates": [
                    72.333068,
                    66.177267
                ]
            },
            "properties": {
                "news_id": "2085543816",
                "title": "Финал Всероссийской олимпиады школьников по физике стартовал на Ямале",
                "date": "2026-04-06T20:58:00",
                "text_preview": "Заключительный этап Всероссийской олимпиады школьников по физике стартовал в Ямало-Ненецком автономном округе, в регион съехались около 500 сильнейших школьников со всей страны, сообщил губернатор Дми...",
                "tags": [
                    "Ямало-Ненецкий автономный округ",
                    "Дмитрий Артюхов"
                ],
                "sentiment": "neutral",
                "confidence": 0.711,
                "place_name": "Ямало-Ненецкий Автономный округ",
                "place_type": "region",
                "region": "Ямало-Ненецкий Автономный округ",
                "rang": 1,
                "url": "https://ria.ru/20260406/yamal-2085543816.html"
            }
        },
        {
            "type": "Feature",
            "geometry": {
                "type": "Point",
                "coordinates": [
                    75.441721,
                    63.197344
                ]
            },
            "properties": {
                "news_id": "2086336588",
                "title": "Артюхов открыл первенство России по самбо среди юношей и девушек на Ямале",
                "date": "2026-04-10T14:37:00",
                "text_preview": "Первенство России по самбо среди девушек и юношей 14-16 лет стартовало в Ноябрьске на Ямале, открыл соревнования губернатор округа Дмитрий Артюхов, сообщает пресс-служба правительства региона. \"Для на...",
                "tags": [
                    "Ямало-Ненецкий автономный округ",
                    "Ямал",
                    "Дмитрий Артюхов",
                    "Ноябрьск",
                    "Самбо"
                ],
                "sentiment": "positive",
                "confidence": 0.62,
                "place_name": "Ноябрьск",
                "place_type": "город",
                "region": "Ямало-Ненецкий Автономный округ",
                "rang": 3,
                "url": "https://ria.ru/20260410/yamal-2086336588.html"
            }
        },
        {
            "type": "Feature",
            "geometry": {
                "type": "Point",
                "coordinates": [
                    72.518325,
                    65.537708
                ]
            },
            "properties": {
                "news_id": "2086336588",
                "title": "Артюхов открыл первенство России по самбо среди юношей и девушек на Ямале",
                "date": "2026-04-10T14:37:00",
                "text_preview": "Первенство России по самбо среди девушек и юношей 14-16 лет стартовало в Ноябрьске на Ямале, открыл соревнования губернатор округа Дмитрий Артюхов, сообщает пресс-служба правительства региона. \"Для на...",
                "tags": [
                    "Ямало-Ненецкий автономный округ",
                    "Ямал",
                    "Дмитрий Артюхов",
                    "Ноябрьск",
                    "Самбо"
                ],
                "sentiment": "positive",
                "confidence": 0.62,
                "place_name": "Надым",
                "place_type": "город",
                "region": "Ямало-Ненецкий Автономный округ",
                "rang": 3,
                "url": "https://ria.ru/20260410/yamal-2086336588.html"
            }
        },
        {
            "type": "Feature",
            "geometry": {
                "type": "Point",
                "coordinates": [
                    74.507958,
                    63.792834
                ]
            },
            "properties": {
                "news_id": "2086336588",
                "title": "Артюхов открыл первенство России по самбо среди юношей и девушек на Ямале",
                "date": "2026-04-10T14:37:00",
                "text_preview": "Первенство России по самбо среди девушек и юношей 14-16 лет стартовало в Ноябрьске на Ямале, открыл соревнования губернатор округа Дмитрий Артюхов, сообщает пресс-служба правительства региона. \"Для на...",
                "tags": [
                    "Ямало-Ненецкий автономный округ",
                    "Ямал",
                    "Дмитрий Артюхов",
                    "Ноябрьск",
                    "Самбо"
                ],
                "sentiment": "positive",
                "confidence": 0.62,
                "place_name": "Муравленко",
                "place_type": "город",
                "region": "Ямало-Ненецкий Автономный округ",
                "rang": 3,
                "url": "https://ria.ru/20260410/yamal-2086336588.html"
            }
        },
        {
            "type": "Feature",
            "geometry": {
                "type": "Point",
                "coordinates": [
                    75.441721,
                    63.197344
                ]
            },
            "properties": {
                "news_id": "2086440357",
                "title": "Строительство самой большой поликлиники на Ямале близится к завершению",
                "date": "2026-04-10T21:22:00",
                "text_preview": "Губернатор Ямала Дмитрий Артюхов проверил ход строительства крупнейшей в регионе поликлиники, где работы близятся к завершению, и нового корпуса школы на 500 мест в Ноябрьске, сообщает правительство р...",
                "tags": [
                    "Ямало-Ненецкий автономный округ",
                    "Строительство",
                    "Ямал",
                    "Ноябрьск",
                    "Дмитрий Артюхов"
                ],
                "sentiment": "positive",
                "confidence": 0.535,
                "place_name": "Ноябрьск",
                "place_type": "город",
                "region": "Ямало-Ненецкий Автономный округ",
                "rang": 3,
                "url": "https://ria.ru/20260410/jamal-2086440357.html"
            }
        },
        {
            "type": "Feature",
            "geometry": {
                "type": "Point",
                "coordinates": [
                    76.680974,
                    66.083963
                ]
            },
            "properties": {
                "news_id": "2086536403",
                "title": "Всероссийская олимпиада по физике завершилась на Ямале",
                "date": "2026-04-11T17:05:00",
                "text_preview": "Всероссийская олимпиада школьников по физике, в которой принял участие 501 школьник, завершилась в Новом Уренгое на Ямале, награды победителям и призерам вручили губернатор округа Дмитрий Артюхов, кос...",
                "tags": [
                    "Ямало-Ненецкий автономный округ"
                ],
                "sentiment": "positive",
                "confidence": 0.652,
                "place_name": "Новый Уренгой",
                "place_type": "город",
                "region": "Ямало-Ненецкий Автономный округ",
                "rang": 3,
                "url": "https://ria.ru/20260411/yamal-2086536403.html"
            }
        },
        {
            "type": "Feature",
            "geometry": {
                "type": "Point",
                "coordinates": [
                    66.608443,
                    66.549285
                ]
            },
            "properties": {
                "news_id": "2087059363",
                "title": "Более 420 тысяч человек обслужили авиакомпании с начала года на Ямале",
                "date": "2026-04-14T18:58:00",
                "text_preview": "Более 420 тысяч пассажиров с начала года обслужили авиакомпании на Ямале, самый большой пассажиропоток фиксируется в аэропорту Нового Уренгоя, сообщает пресс-служба правительства Ямала. \"Свыше 420 тыс...",
                "tags": [
                    "Ямало-Ненецкий автономный округ",
                    "Ямал",
                    "Дмитрий Артюхов",
                    "Новый Уренгой",
                    "Салехард",
                    "авиакомпании"
                ],
                "sentiment": "positive",
                "confidence": 0.834,
                "place_name": "Салехард",
                "place_type": "город",
                "region": "Ямало-Ненецкий Автономный округ",
                "rang": 3,
                "url": "https://ria.ru/20260414/yamal-2087059363.html"
            }
        },
        {
            "type": "Feature",
            "geometry": {
                "type": "Point",
                "coordinates": [
                    75.441721,
                    63.197344
                ]
            },
            "properties": {
                "news_id": "2087059363",
                "title": "Более 420 тысяч человек обслужили авиакомпании с начала года на Ямале",
                "date": "2026-04-14T18:58:00",
                "text_preview": "Более 420 тысяч пассажиров с начала года обслужили авиакомпании на Ямале, самый большой пассажиропоток фиксируется в аэропорту Нового Уренгоя, сообщает пресс-служба правительства Ямала. \"Свыше 420 тыс...",
                "tags": [
                    "Ямало-Ненецкий автономный округ",
                    "Ямал",
                    "Дмитрий Артюхов",
                    "Новый Уренгой",
                    "Салехард",
                    "авиакомпании"
                ],
                "sentiment": "positive",
                "confidence": 0.834,
                "place_name": "Ноябрьск",
                "place_type": "город",
                "region": "Ямало-Ненецкий Автономный округ",
                "rang": 3,
                "url": "https://ria.ru/20260414/yamal-2087059363.html"
            }
        },
        {
            "type": "Feature",
            "geometry": {
                "type": "Point",
                "coordinates": [
                    65.51564,
                    57.154949
                ]
            },
            "properties": {
                "news_id": "2087059363",
                "title": "Более 420 тысяч человек обслужили авиакомпании с начала года на Ямале",
                "date": "2026-04-14T18:58:00",
                "text_preview": "Более 420 тысяч пассажиров с начала года обслужили авиакомпании на Ямале, самый большой пассажиропоток фиксируется в аэропорту Нового Уренгоя, сообщает пресс-служба правительства Ямала. \"Свыше 420 тыс...",
                "tags": [
                    "Ямало-Ненецкий автономный округ",
                    "Ямал",
                    "Дмитрий Артюхов",
                    "Новый Уренгой",
                    "Салехард",
                    "авиакомпании"
                ],
                "sentiment": "positive",
                "confidence": 0.834,
                "place_name": "Тюмень",
                "place_type": "город",
                "region": "Тюменская область",
                "rang": 3,
                "url": "https://ria.ru/20260414/yamal-2087059363.html"
            }
        },
        {
            "type": "Feature",
            "geometry": {
                "type": "Point",
                "coordinates": [
                    72.518325,
                    65.537708
                ]
            },
            "properties": {
                "news_id": "2087059363",
                "title": "Более 420 тысяч человек обслужили авиакомпании с начала года на Ямале",
                "date": "2026-04-14T18:58:00",
                "text_preview": "Более 420 тысяч пассажиров с начала года обслужили авиакомпании на Ямале, самый большой пассажиропоток фиксируется в аэропорту Нового Уренгоя, сообщает пресс-служба правительства Ямала. \"Свыше 420 тыс...",
                "tags": [
                    "Ямало-Ненецкий автономный округ",
                    "Ямал",
                    "Дмитрий Артюхов",
                    "Новый Уренгой",
                    "Салехард",
                    "авиакомпании"
                ],
                "sentiment": "positive",
                "confidence": 0.834,
                "place_name": "Надым",
                "place_type": "город",
                "region": "Ямало-Ненецкий Автономный округ",
                "rang": 3,
                "url": "https://ria.ru/20260414/yamal-2087059363.html"
            }
        },
        {
            "type": "Feature",
            "geometry": {
                "type": "Point",
                "coordinates": [
                    76.680974,
                    66.083963
                ]
            },
            "properties": {
                "news_id": "2087059363",
                "title": "Более 420 тысяч человек обслужили авиакомпании с начала года на Ямале",
                "date": "2026-04-14T18:58:00",
                "text_preview": "Более 420 тысяч пассажиров с начала года обслужили авиакомпании на Ямале, самый большой пассажиропоток фиксируется в аэропорту Нового Уренгоя, сообщает пресс-служба правительства Ямала. \"Свыше 420 тыс...",
                "tags": [
                    "Ямало-Ненецкий автономный округ",
                    "Ямал",
                    "Дмитрий Артюхов",
                    "Новый Уренгой",
                    "Салехард",
                    "авиакомпании"
                ],
                "sentiment": "positive",
                "confidence": 0.834,
                "place_name": "Новый Уренгой",
                "place_type": "город",
                "region": "Ямало-Ненецкий Автономный округ",
                "rang": 3,
                "url": "https://ria.ru/20260414/yamal-2087059363.html"
            }
        },
        {
            "type": "Feature",
            "geometry": {
                "type": "Point",
                "coordinates": [
                    76.680974,
                    66.083963
                ]
            },
            "properties": {
                "news_id": "2087196759",
                "title": "Просветительский марафон Знание.Первые пройдет на Ямале в конце апреля",
                "date": "2026-04-15T15:03:00",
                "text_preview": "Просветительский марафон Знание.Первые пройдет в Новом Уренгое на Ямале 28 апреля, он соберет молодежь и выдающихся лекторов для обсуждения единства народов и актуальных тем в различных сферах, сообща...",
                "tags": [
                    "Ямало-Ненецкий автономный округ",
                    "Новый Уренгой",
                    "Ямал",
                    "Дмитрий Артюхов"
                ],
                "sentiment": "neutral",
                "confidence": 0.606,
                "place_name": "Новый Уренгой",
                "place_type": "город",
                "region": "Ямало-Ненецкий Автономный округ",
                "rang": 3,
                "url": "https://ria.ru/20260415/marafon-2087196759.html"
            }
        },
        {
            "type": "Feature",
            "geometry": {
                "type": "Point",
                "coordinates": [
                    66.248947,
                    55.655356
                ]
            },
            "properties": {
                "news_id": "2087196759",
                "title": "Просветительский марафон Знание.Первые пройдет на Ямале в конце апреля",
                "date": "2026-04-15T15:03:00",
                "text_preview": "Просветительский марафон Знание.Первые пройдет в Новом Уренгое на Ямале 28 апреля, он соберет молодежь и выдающихся лекторов для обсуждения единства народов и актуальных тем в различных сферах, сообща...",
                "tags": [
                    "Ямало-Ненецкий автономный округ",
                    "Новый Уренгой",
                    "Ямал",
                    "Дмитрий Артюхов"
                ],
                "sentiment": "neutral",
                "confidence": 0.606,
                "place_name": "Барнаул",
                "place_type": "деревня",
                "region": "Курганская область",
                "rang": 3,
                "url": "https://ria.ru/20260415/marafon-2087196759.html"
            }
        },
        {
            "type": "Feature",
            "geometry": {
                "type": "Point",
                "coordinates": [
                    66.389811,
                    66.659522
                ]
            },
            "properties": {
                "news_id": "2087634298",
                "title": "Губернатор Ямала представил опыт строительства зимних дорог в Арктике",
                "date": "2026-04-17T20:16:00",
                "text_preview": "Губернатор Ямала Дмитрий Артюхов принял участие в заседании госкомиссии по вопросам развития Арктики, где представил опыт по разработке и созданию новых технологий строительства зимних дорог в округе,...",
                "tags": [
                    "Ямал",
                    "Обь",
                    "Дмитрий Артюхов",
                    "Арктика"
                ],
                "sentiment": "neutral",
                "confidence": 0.692,
                "place_name": "Лабытнанги",
                "place_type": "город",
                "region": "Ямало-Ненецкий Автономный округ",
                "rang": 3,
                "url": "https://ria.ru/20260417/artjuhov-2087634298.html"
            }
        },
        {
            "type": "Feature",
            "geometry": {
                "type": "Point",
                "coordinates": [
                    64.698611,
                    65.398056
                ]
            },
            "properties": {
                "news_id": "2087634298",
                "title": "Губернатор Ямала представил опыт строительства зимних дорог в Арктике",
                "date": "2026-04-17T20:16:00",
                "text_preview": "Губернатор Ямала Дмитрий Артюхов принял участие в заседании госкомиссии по вопросам развития Арктики, где представил опыт по разработке и созданию новых технологий строительства зимних дорог в округе,...",
                "tags": [
                    "Ямал",
                    "Обь",
                    "Дмитрий Артюхов",
                    "Арктика"
                ],
                "sentiment": "neutral",
                "confidence": 0.692,
                "place_name": "Мужи",
                "place_type": "село",
                "region": "Ямало-Ненецкий Автономный округ",
                "rang": 3,
                "url": "https://ria.ru/20260417/artjuhov-2087634298.html"
            }
        },
        {
            "type": "Feature",
            "geometry": {
                "type": "Point",
                "coordinates": [
                    66.608443,
                    66.549285
                ]
            },
            "properties": {
                "news_id": "2087634298",
                "title": "Губернатор Ямала представил опыт строительства зимних дорог в Арктике",
                "date": "2026-04-17T20:16:00",
                "text_preview": "Губернатор Ямала Дмитрий Артюхов принял участие в заседании госкомиссии по вопросам развития Арктики, где представил опыт по разработке и созданию новых технологий строительства зимних дорог в округе,...",
                "tags": [
                    "Ямал",
                    "Обь",
                    "Дмитрий Артюхов",
                    "Арктика"
                ],
                "sentiment": "neutral",
                "confidence": 0.692,
                "place_name": "Салехард",
                "place_type": "город",
                "region": "Ямало-Ненецкий Автономный округ",
                "rang": 3,
                "url": "https://ria.ru/20260417/artjuhov-2087634298.html"
            }
        },
        {
            "type": "Feature",
            "geometry": {
                "type": "Point",
                "coordinates": [
                    72.333068,
                    66.177267
                ]
            },
            "properties": {
                "news_id": "2090571477",
                "title": "Доставку грузов для тундровиков с помощью дрона протестировали на Ямале",
                "date": "2026-05-05T10:18:00",
                "text_preview": "Доставку грузов беспилотниками в тундру по заказу кочевников впервые протестировали в Ямало-Ненецком автономном округе, с итогами эксперимента ознакомился губернатор Дмитрий Артюхов на встрече с участ...",
                "tags": [
                    "Ямал",
                    "Дмитрий Артюхов",
                    "Ямало-Ненецкий автономный округ (ЯНАО)",
                    "доставка",
                    "дроны"
                ],
                "sentiment": "neutral",
                "confidence": 0.712,
                "place_name": "Ямало-Ненецкий Автономный округ",
                "place_type": "region",
                "region": "Ямало-Ненецкий Автономный округ",
                "rang": 1,
                "url": "https://ria.ru/20260505/yamal-2090571477.html"
            }
        },
        {
            "type": "Feature",
            "geometry": {
                "type": "Point",
                "coordinates": [
                    66.608443,
                    66.549285
                ]
            },
            "properties": {
                "news_id": "2091178715",
                "title": "Губернатор Ямала встретился с участниками \"Движения Первых\"",
                "date": "2026-05-07T20:56:00",
                "text_preview": "Губернатор Ямала Дмитрий Артюхов встретился с участниками \"Движения Первых\" на окружной конференции \"Поехали!\" в Салехарде, где молодежь представила свои предложения и практические решения различных с...",
                "tags": [
                    "Ямал",
                    "Дмитрий Артюхов"
                ],
                "sentiment": "neutral",
                "confidence": 0.663,
                "place_name": "Салехард",
                "place_type": "город",
                "region": "Ямало-Ненецкий Автономный округ",
                "rang": 3,
                "url": "https://ria.ru/20260507/artyukhov-2091178715.html"
            }
        },
        {
            "type": "Feature",
            "geometry": {
                "type": "Point",
                "coordinates": [
                    68.421673,
                    57.199742
                ]
            },
            "properties": {
                "news_id": "2092274693",
                "title": "Ямал вошел в пятерку лучших по итогам Всероссийской олимпиады школьников",
                "date": "2026-05-13T16:52:00",
                "text_preview": "Ямал вошел в пятерку лидеров России по эффективности раскрытия талантов школьников, показав высокие результаты по итогам Всероссийской олимпиады школьников, сообщает пресс-служба правительства региона...",
                "tags": [
                    "Ямал",
                    "Дмитрий Артюхов",
                    "Школа"
                ],
                "sentiment": "positive",
                "confidence": 0.666,
                "place_name": "Тюменская область",
                "place_type": "region",
                "region": "Тюменская область",
                "rang": 1,
                "url": "https://ria.ru/20260513/yamal-2092274693.html"
            }
        }
    ]
}